{"type": "FeatureCollection", "synthetic": false, "data_source": "REAL \u2014 BC Mineral Titles Online (public)", "source_dataset": "pub:WHSE_MINERAL_TENURE.MTA_ACQUIRED_TENURE_SVW", "source_endpoint": "https://openmaps.gov.bc.ca/geo/pub/ows", "licence": "Open Government Licence \u2013 British Columbia", "attribution": "Contains information licensed under the Open Government Licence \u2013 British Columbia.", "note": "Two windows: the subject property, and the surrounding ground so neighbouring holders can be named. Tenure boundaries are authoritative as published by the Province; currency depends on when the bulk file was baked, and tenures LAPSE \u2014 a claim shown as current when it has expired is a misstatement, so the bake date travels with the data and must be shown.", "subject_owner": "ELK GOLD MINING CORP.", "owners": {"ELK GOLD MINING CORP.": 29, "BARRANCO GOLD MINING CORP.": 5, "RIPPON, DONALD JOHN": 3, "FLOW METALS CORP.": 2, "GALLISSANT, GERARD": 2, "BILLINGSLEY, RICHARD JOHN": 2, "PYVOVAR, IHOR": 2, "RITCHIE, ROBIN WILLIAM SHANE": 1, "VIZSLA COPPER CORP.": 1, "CLEE, RICHARD REECE": 1, "MESZAROS, LASZLO": 1, "MOREL, PETER": 1, "HANSEN, ANDERS MICHAEL": 1, "BRIDDON, PHILIP JOSEPH": 1, "TKACHUK, DOUGLAS": 1, "COAST COPPER CORP.": 1}, "clip_extent_wgs84": {"west": -120.34491308606421, "south": 49.83279930276972, "east": -120.2810317713049, "north": 49.870764796458076}, "neighbour_extent_wgs84": {"west": -120.4095824981117, "south": 49.79378210534553, "east": -120.21615625759179, "north": 49.90970617314869}, "neighbour_radius_m": 6000.0, "crs_of_source_model": "EPSG:26910", "features": [{"type": "Feature", "geometry": {"type": "Polygon", "coordinates": [[[-120.34497, 49.7957], [-120.34497, 49.79154], [-120.34497, 49.78737], [-120.33872, 49.78737], [-120.33247, 49.78737], [-120.32622, 49.78737], [-120.32622, 49.79154], [-120.33247, 49.79154], [-120.33247, 49.7957], [-120.33247, 49.79987], [-120.33872, 49.79987], [-120.34497, 49.79987], [-120.34497, 49.7957]]]}, "properties": {"TENURE_NUMBER_ID": 1083061, "CLAIM_NAME": "THE JENNY", "OWNER_NAME": "RITCHIE, ROBIN WILLIAM SHANE", "TENURE_TYPE_DESCRIPTION": "Placer", "TENURE_SUB_TYPE_DESCRIPTION": "CLAIM", "TITLE_TYPE_DESCRIPTION": "Placer Cell Title Submission", "AREA_IN_HECTARES": 145.9966, "ISSUE_DATE": "2021-06-15Z", "GOOD_TO_DATE": "2026-06-23Z", "_subject": false, "_neighbour": true}}, {"type": "Feature", "geometry": {"type": "Polygon", "coordinates": [[[-120.41372, 49.8457], [-120.41372, 49.84154], [-120.41372, 49.83737], [-120.41372, 49.8332], [-120.40747, 49.8332], [-120.40122, 49.8332], [-120.39497, 49.8332], [-120.38872, 49.8332], [-120.38247, 49.8332], [-120.37622, 49.8332], [-120.37622, 49.83737], [-120.37622, 49.84154], [-120.37622, 49.8457], [-120.37622, 49.84987], [-120.38247, 49.84987], [-120.38872, 49.84987], [-120.39497, 49.84987], [-120.40122, 49.84987], [-120.40747, 49.84987], [-120.41372, 49.84987], [-120.41372, 49.8457]]]}, "properties": {"TENURE_NUMBER_ID": 524944, "CLAIM_NAME": "ELK06A", "OWNER_NAME": "ELK GOLD MINING CORP.", "TENURE_TYPE_DESCRIPTION": "Mineral", "TENURE_SUB_TYPE_DESCRIPTION": "CLAIM", "TITLE_TYPE_DESCRIPTION": "Mineral Cell Title Submission", "AREA_IN_HECTARES": 500.072, "ISSUE_DATE": "2006-01-09Z", "GOOD_TO_DATE": "2027-09-30Z", "_subject": false, "_neighbour": false}}, {"type": "Feature", "geometry": {"type": "Polygon", "coordinates": [[[-120.41372, 49.86237], [-120.41372, 49.8582], [-120.41372, 49.85404], [-120.41372, 49.84987], [-120.40747, 49.84987], [-120.40122, 49.84987], [-120.39497, 49.84987], [-120.38872, 49.84987], [-120.38247, 49.84987], [-120.37622, 49.84987], [-120.37622, 49.85404], [-120.37622, 49.8582], [-120.37622, 49.86237], [-120.37622, 49.86654], [-120.38247, 49.86654], [-120.38872, 49.86654], [-120.39497, 49.86654], [-120.40122, 49.86654], [-120.40747, 49.86654], [-120.41372, 49.86654], [-120.41372, 49.86237]]]}, "properties": {"TENURE_NUMBER_ID": 524945, "CLAIM_NAME": "ELK06B", "OWNER_NAME": "ELK GOLD MINING CORP.", "TENURE_TYPE_DESCRIPTION": "Mineral", "TENURE_SUB_TYPE_DESCRIPTION": "CLAIM", "TITLE_TYPE_DESCRIPTION": "Mineral Cell Title Submission", "AREA_IN_HECTARES": 499.901, "ISSUE_DATE": "2006-01-09Z", "GOOD_TO_DATE": "2027-09-30Z", "_subject": false, "_neighbour": false}}, {"type": "Feature", "geometry": {"type": "Polygon", "coordinates": [[[-120.41372, 49.87904], [-120.41372, 49.87487], [-120.41372, 49.8707], [-120.41372, 49.86654], [-120.40747, 49.86654], [-120.40122, 49.86654], [-120.39497, 49.86654], [-120.38872, 49.86654], [-120.38247, 49.86654], [-120.37622, 49.86654], [-120.37622, 49.8707], [-120.37622, 49.87487], [-120.37622, 49.87904], [-120.37622, 49.8832], [-120.38247, 49.8832], [-120.38872, 49.8832], [-120.39497, 49.8832], [-120.40122, 49.8832], [-120.40747, 49.8832], [-120.41372, 49.8832], [-120.41372, 49.87904]]]}, "properties": {"TENURE_NUMBER_ID": 524946, "CLAIM_NAME": "ELK06C", "OWNER_NAME": "ELK GOLD MINING CORP.", "TENURE_TYPE_DESCRIPTION": "Mineral", "TENURE_SUB_TYPE_DESCRIPTION": "CLAIM", "TITLE_TYPE_DESCRIPTION": "Mineral Cell Title Submission", "AREA_IN_HECTARES": 499.729, "ISSUE_DATE": "2006-01-09Z", "GOOD_TO_DATE": "2027-09-30Z", "_subject": false, "_neighbour": false}}, {"type": "Feature", "geometry": {"type": "Polygon", "coordinates": [[[-120.41372, 49.8957], [-120.41372, 49.89154], [-120.41372, 49.88737], [-120.41372, 49.8832], [-120.40747, 49.8832], [-120.40122, 49.8832], [-120.39497, 49.8832], [-120.38872, 49.8832], [-120.38247, 49.8832], [-120.37622, 49.8832], [-120.37622, 49.88737], [-120.37622, 49.89154], [-120.37622, 49.8957], [-120.37622, 49.89987], [-120.38247, 49.89987], [-120.38872, 49.89987], [-120.39497, 49.89987], [-120.40122, 49.89987], [-120.40747, 49.89987], [-120.41372, 49.89987], [-120.41372, 49.8957]]]}, "properties": {"TENURE_NUMBER_ID": 524947, "CLAIM_NAME": "ELK06D", "OWNER_NAME": "ELK GOLD MINING CORP.", "TENURE_TYPE_DESCRIPTION": "Mineral", "TENURE_SUB_TYPE_DESCRIPTION": "CLAIM", "TITLE_TYPE_DESCRIPTION": "Mineral Cell Title Submission", "AREA_IN_HECTARES": 499.558, "ISSUE_DATE": "2006-01-09Z", "GOOD_TO_DATE": "2027-09-30Z", "_subject": false, "_neighbour": false}}, {"type": "Feature", "geometry": {"type": "Polygon", "coordinates": [[[-120.37622, 49.8957], [-120.37622, 49.89154], [-120.37622, 49.88737], [-120.37622, 49.8832], [-120.36997, 49.8832], [-120.36372, 49.8832], [-120.35747, 49.8832], [-120.35122, 49.8832], [-120.34497, 49.8832], [-120.33872, 49.8832], [-120.33872, 49.88737], [-120.33872, 49.89154], [-120.33872, 49.8957], [-120.33872, 49.89987], [-120.34497, 49.89987], [-120.35122, 49.89987], [-120.35747, 49.89987], [-120.36372, 49.89987], [-120.36997, 49.89987], [-120.37622, 49.89987], [-120.37622, 49.8957]]]}, "properties": {"TENURE_NUMBER_ID": 524948, "CLAIM_NAME": "ELK06E", "OWNER_NAME": "ELK GOLD MINING CORP.", "TENURE_TYPE_DESCRIPTION": "Mineral", "TENURE_SUB_TYPE_DESCRIPTION": "CLAIM", "TITLE_TYPE_DESCRIPTION": "Mineral Cell Title Submission", "AREA_IN_HECTARES": 499.556, "ISSUE_DATE": "2006-01-09Z", "GOOD_TO_DATE": "2027-09-30Z", "_subject": false, "_neighbour": false}}, {"type": "Feature", "geometry": {"type": "Polygon", "coordinates": [[[-120.37622, 49.87904], [-120.37622, 49.87487], [-120.37622, 49.8707], [-120.37622, 49.86654], [-120.36997, 49.86654], [-120.36372, 49.86654], [-120.35747, 49.86654], [-120.35122, 49.86654], [-120.34497, 49.86654], [-120.33872, 49.86654], [-120.33872, 49.8707], [-120.33872, 49.87487], [-120.33872, 49.87904], [-120.33872, 49.8832], [-120.34497, 49.8832], [-120.35122, 49.8832], [-120.35747, 49.8832], [-120.36372, 49.8832], [-120.36997, 49.8832], [-120.37622, 49.8832], [-120.37622, 49.87904]]]}, "properties": {"TENURE_NUMBER_ID": 524949, "CLAIM_NAME": "ELK06F", "OWNER_NAME": "ELK GOLD MINING CORP.", "TENURE_TYPE_DESCRIPTION": "Mineral", "TENURE_SUB_TYPE_DESCRIPTION": "CLAIM", "TITLE_TYPE_DESCRIPTION": "Mineral Cell Title Submission", "AREA_IN_HECTARES": 499.727, "ISSUE_DATE": "2006-01-09Z", "GOOD_TO_DATE": "2027-09-30Z", "_subject": true, "_neighbour": false}}, {"type": "Feature", "geometry": {"type": "Polygon", "coordinates": [[[-120.37622, 49.86237], [-120.37622, 49.8582], [-120.36997, 49.8582], [-120.36372, 49.8582], [-120.35747, 49.8582], [-120.35122, 49.8582], [-120.34497, 49.8582], [-120.34497, 49.86237], [-120.33872, 49.86237], [-120.33247, 49.86237], [-120.33247, 49.86654], [-120.33247, 49.8707], [-120.33872, 49.8707], [-120.33872, 49.86654], [-120.34497, 49.86654], [-120.35122, 49.86654], [-120.35747, 49.86654], [-120.36372, 49.86654], [-120.36997, 49.86654], [-120.37622, 49.86654], [-120.37622, 49.86237]]]}, "properties": {"TENURE_NUMBER_ID": 524950, "CLAIM_NAME": "ELK06G", "OWNER_NAME": "ELK GOLD MINING CORP.", "TENURE_TYPE_DESCRIPTION": "Mineral", "TENURE_SUB_TYPE_DESCRIPTION": "CLAIM", "TITLE_TYPE_DESCRIPTION": "Mineral Cell Title Submission", "AREA_IN_HECTARES": 270.751, "ISSUE_DATE": "2006-01-09Z", "GOOD_TO_DATE": "2027-09-30Z", "_subject": true, "_neighbour": false}}, {"type": "Feature", "geometry": {"type": "Polygon", "coordinates": [[[-120.33872, 49.90404], [-120.33872, 49.89987], [-120.33872, 49.8957], [-120.33872, 49.89154], [-120.33872, 49.88737], [-120.33872, 49.8832], [-120.33872, 49.87904], [-120.33872, 49.87487], [-120.33872, 49.8707], [-120.33247, 49.8707], [-120.33247, 49.87487], [-120.33247, 49.87904], [-120.33247, 49.8832], [-120.33247, 49.88737], [-120.33247, 49.89154], [-120.32622, 49.89154], [-120.31997, 49.89154], [-120.31372, 49.89154], [-120.30747, 49.89154], [-120.30747, 49.89571], [-120.30747, 49.89987], [-120.30747, 49.90404], [-120.30747, 49.90821], [-120.31372, 49.90821], [-120.31997, 49.90821], [-120.32622, 49.90821], [-120.33247, 49.90821], [-120.33872, 49.9082], [-120.33872, 49.90404]]]}, "properties": {"TENURE_NUMBER_ID": 524952, "CLAIM_NAME": "ELK06H", "OWNER_NAME": "ELK GOLD MINING CORP.", "TENURE_TYPE_DESCRIPTION": "Mineral", "TENURE_SUB_TYPE_DESCRIPTION": "CLAIM", "TITLE_TYPE_DESCRIPTION": "Mineral Cell Title Submission", "AREA_IN_HECTARES": 520.326, "ISSUE_DATE": "2006-01-09Z", "GOOD_TO_DATE": "2027-09-30Z", "_subject": true, "_neighbour": false}}, {"type": "Feature", "geometry": {"type": "Polygon", "coordinates": [[[-120.41372, 49.90404], [-120.41372, 49.89987], [-120.40747, 49.89987], [-120.40122, 49.89987], [-120.39497, 49.89987], [-120.38872, 49.89987], [-120.38247, 49.89987], [-120.37622, 49.89987], [-120.36997, 49.89987], [-120.36372, 49.89987], [-120.35747, 49.89987], [-120.35122, 49.89987], [-120.34497, 49.89987], [-120.33872, 49.89987], [-120.33872, 49.90404], [-120.33872, 49.9082], [-120.34497, 49.90821], [-120.35122, 49.9082], [-120.35747, 49.9082], [-120.36372, 49.9082], [-120.36997, 49.9082], [-120.37622, 49.9082], [-120.38247, 49.9082], [-120.38872, 49.9082], [-120.39497, 49.9082], [-120.40122, 49.9082], [-120.40747, 49.9082], [-120.41372, 49.9082], [-120.41372, 49.90404]]]}, "properties": {"TENURE_NUMBER_ID": 524954, "CLAIM_NAME": "ELK06I", "OWNER_NAME": "ELK GOLD MINING CORP.", "TENURE_TYPE_DESCRIPTION": "Mineral", "TENURE_SUB_TYPE_DESCRIPTION": "CLAIM", "TITLE_TYPE_DESCRIPTION": "Mineral Cell Title Submission", "AREA_IN_HECTARES": 499.429, "ISSUE_DATE": "2006-01-09Z", "GOOD_TO_DATE": "2027-09-30Z", "_subject": false, "_neighbour": false}}, {"type": "Feature", "geometry": {"type": "Polygon", "coordinates": [[[-120.29497, 49.81237], [-120.30122, 49.81237], [-120.30122, 49.8082], [-120.29497, 49.8082], [-120.29497, 49.81237]]]}, "properties": {"TENURE_NUMBER_ID": 516781, "CLAIM_NAME": "ELK05A", "OWNER_NAME": "ELK GOLD MINING CORP.", "TENURE_TYPE_DESCRIPTION": "Mineral", "TENURE_SUB_TYPE_DESCRIPTION": "CLAIM", "TITLE_TYPE_DESCRIPTION": "Mineral Cell Title Submission", "AREA_IN_HECTARES": 20.849, "ISSUE_DATE": "2005-07-11Z", "GOOD_TO_DATE": "2027-09-30Z", "_subject": false, "_neighbour": false}}, {"type": "Feature", "geometry": {"type": "Polygon", "coordinates": [[[-120.30747, 49.87071], [-120.31372, 49.8707], [-120.31372, 49.86654], [-120.30747, 49.86654], [-120.30122, 49.86654], [-120.30122, 49.87071], [-120.30747, 49.87071]]]}, "properties": {"TENURE_NUMBER_ID": 517116, "CLAIM_NAME": "ELK05B", "OWNER_NAME": "ELK GOLD MINING CORP.", "TENURE_TYPE_DESCRIPTION": "Mineral", "TENURE_SUB_TYPE_DESCRIPTION": "CLAIM", "TITLE_TYPE_DESCRIPTION": "Mineral Cell Title Submission", "AREA_IN_HECTARES": 41.65, "ISSUE_DATE": "2005-07-12Z", "GOOD_TO_DATE": "2027-09-30Z", "_subject": true, "_neighbour": false}}, {"type": "Feature", "geometry": {"type": "Polygon", "coordinates": [[[-120.26372, 49.87904], [-120.26372, 49.87487], [-120.26372, 49.87071], [-120.26372, 49.86654], [-120.26372, 49.86237], [-120.25747, 49.86237], [-120.25121, 49.86237], [-120.24496, 49.86237], [-120.23871, 49.86237], [-120.23246, 49.86237], [-120.23246, 49.86654], [-120.23246, 49.87071], [-120.23246, 49.87487], [-120.23246, 49.87904], [-120.23246, 49.88321], [-120.23872, 49.88321], [-120.24497, 49.88321], [-120.25122, 49.88321], [-120.25747, 49.88321], [-120.26372, 49.88321], [-120.26372, 49.87904]]]}, "properties": {"TENURE_NUMBER_ID": 516717, "OWNER_NAME": "ELK GOLD MINING CORP.", "TENURE_TYPE_DESCRIPTION": "Mineral", "TENURE_SUB_TYPE_DESCRIPTION": "CLAIM", "TITLE_TYPE_DESCRIPTION": "Mineral Cell Title Submission", "AREA_IN_HECTARES": 520.568, "ISSUE_DATE": "2005-07-11Z", "GOOD_TO_DATE": "2027-09-30Z", "_subject": false, "_neighbour": false}}, {"type": "Feature", "geometry": {"type": "Polygon", "coordinates": [[[-120.26372, 49.85821], [-120.26372, 49.85404], [-120.26371, 49.84987], [-120.26371, 49.84571], [-120.26371, 49.84154], [-120.26371, 49.83737], [-120.25746, 49.83737], [-120.25121, 49.83737], [-120.24496, 49.83737], [-120.23871, 49.83737], [-120.23246, 49.83737], [-120.23246, 49.84154], [-120.23246, 49.84571], [-120.23246, 49.84987], [-120.23246, 49.85404], [-120.23246, 49.85821], [-120.23246, 49.86237], [-120.23871, 49.86237], [-120.24496, 49.86237], [-120.25121, 49.86237], [-120.25747, 49.86237], [-120.26372, 49.86237], [-120.26372, 49.85821]]]}, "properties": {"TENURE_NUMBER_ID": 516725, "OWNER_NAME": "ELK GOLD MINING CORP.", "TENURE_TYPE_DESCRIPTION": "Mineral", "TENURE_SUB_TYPE_DESCRIPTION": "CLAIM", "TITLE_TYPE_DESCRIPTION": "Mineral Cell Title Submission", "AREA_IN_HECTARES": 624.976, "ISSUE_DATE": "2005-07-11Z", "GOOD_TO_DATE": "2027-09-30Z", "_subject": false, "_neighbour": false}}, {"type": "Feature", "geometry": {"type": "Polygon", "coordinates": [[[-120.26371, 49.83321], [-120.26371, 49.82904], [-120.26372, 49.82487], [-120.26372, 49.82071], [-120.26372, 49.81654], [-120.25747, 49.81654], [-120.25122, 49.81654], [-120.24497, 49.81654], [-120.23871, 49.81654], [-120.23246, 49.81654], [-120.23246, 49.82071], [-120.23246, 49.82487], [-120.23246, 49.82904], [-120.23246, 49.83321], [-120.23246, 49.83737], [-120.23871, 49.83737], [-120.24496, 49.83737], [-120.25121, 49.83737], [-120.25746, 49.83737], [-120.26371, 49.83737], [-120.26371, 49.83321]]]}, "properties": {"TENURE_NUMBER_ID": 516727, "OWNER_NAME": "ELK GOLD MINING CORP.", "TENURE_TYPE_DESCRIPTION": "Mineral", "TENURE_SUB_TYPE_DESCRIPTION": "CLAIM", "TITLE_TYPE_DESCRIPTION": "Mineral Cell Title Submission", "AREA_IN_HECTARES": 521.047, "ISSUE_DATE": "2005-07-11Z", "GOOD_TO_DATE": "2027-09-30Z", "_subject": false, "_neighbour": false}}, {"type": "Feature", "geometry": {"type": "Polygon", "coordinates": [[[-120.26372, 49.81237], [-120.26372, 49.80821], [-120.26372, 49.80404], [-120.26372, 49.79987], [-120.26372, 49.79571], [-120.25747, 49.79571], [-120.25122, 49.79571], [-120.24497, 49.79571], [-120.23872, 49.79571], [-120.23247, 49.79571], [-120.23247, 49.79987], [-120.23247, 49.80404], [-120.23247, 49.80821], [-120.23247, 49.81237], [-120.23246, 49.81654], [-120.23871, 49.81654], [-120.24497, 49.81654], [-120.25122, 49.81654], [-120.25747, 49.81654], [-120.26372, 49.81654], [-120.26372, 49.81237]]]}, "properties": {"TENURE_NUMBER_ID": 516731, "OWNER_NAME": "ELK GOLD MINING CORP.", "TENURE_TYPE_DESCRIPTION": "Mineral", "TENURE_SUB_TYPE_DESCRIPTION": "CLAIM", "TITLE_TYPE_DESCRIPTION": "Mineral Cell Title Submission", "AREA_IN_HECTARES": 521.261, "ISSUE_DATE": "2005-07-11Z", "GOOD_TO_DATE": "2027-09-30Z", "_subject": false, "_neighbour": false}}, {"type": "Feature", "geometry": {"type": "Polygon", "coordinates": [[[-120.29497, 49.7957], [-120.29497, 49.79154], [-120.29497, 49.78737], [-120.29497, 49.7832], [-120.28872, 49.7832], [-120.28872, 49.77904], [-120.28872, 49.77487], [-120.28872, 49.7707], [-120.28872, 49.76654], [-120.28247, 49.76654], [-120.27622, 49.76654], [-120.26997, 49.76654], [-120.26372, 49.76654], [-120.25747, 49.76654], [-120.25122, 49.76654], [-120.24497, 49.76654], [-120.23872, 49.76654], [-120.23247, 49.76654], [-120.23247, 49.77071], [-120.23247, 49.77487], [-120.23247, 49.77904], [-120.23247, 49.78321], [-120.23247, 49.78737], [-120.23247, 49.79154], [-120.23247, 49.79571], [-120.23872, 49.79571], [-120.24497, 49.79571], [-120.25122, 49.79571], [-120.25747, 49.79571], [-120.26372, 49.79571], [-120.26372, 49.79987], [-120.26997, 49.79987], [-120.27622, 49.79987], [-120.28247, 49.79987], [-120.28872, 49.79987], [-120.29497, 49.79987], [-120.29497, 49.7957]]]}, "properties": {"TENURE_NUMBER_ID": 516732, "OWNER_NAME": "ELK GOLD MINING CORP.", "TENURE_TYPE_DESCRIPTION": "Mineral", "TENURE_SUB_TYPE_DESCRIPTION": "CLAIM", "TITLE_TYPE_DESCRIPTION": "Mineral Cell Title Submission", "AREA_IN_HECTARES": 1481.067, "ISSUE_DATE": "2005-07-11Z", "GOOD_TO_DATE": "2027-09-30Z", "_subject": false, "_neighbour": false}}, {"type": "Feature", "geometry": {"type": "Polygon", "coordinates": [[[-120.29497, 49.81654], [-120.29497, 49.81237], [-120.29497, 49.8082], [-120.29497, 49.80404], [-120.29497, 49.79987], [-120.28872, 49.79987], [-120.28247, 49.79987], [-120.27622, 49.79987], [-120.26997, 49.79987], [-120.26372, 49.79987], [-120.26372, 49.80404], [-120.26372, 49.80821], [-120.26372, 49.81237], [-120.26372, 49.81654], [-120.26372, 49.82071], [-120.26372, 49.82487], [-120.26371, 49.82904], [-120.26371, 49.83321], [-120.26371, 49.83737], [-120.26371, 49.84154], [-120.26996, 49.84154], [-120.27622, 49.84154], [-120.28247, 49.84154], [-120.28872, 49.84154], [-120.28872, 49.83737], [-120.28872, 49.83321], [-120.28872, 49.82904], [-120.28872, 49.82487], [-120.28872, 49.8207], [-120.29497, 49.8207], [-120.29497, 49.81654]]]}, "properties": {"TENURE_NUMBER_ID": 516733, "OWNER_NAME": "ELK GOLD MINING CORP.", "TENURE_TYPE_DESCRIPTION": "Mineral", "TENURE_SUB_TYPE_DESCRIPTION": "CLAIM", "TITLE_TYPE_DESCRIPTION": "Mineral Cell Title Submission", "AREA_IN_HECTARES": 938.034, "ISSUE_DATE": "2005-07-11Z", "GOOD_TO_DATE": "2027-09-30Z", "_subject": true, "_neighbour": false}}, {"type": "Feature", "geometry": {"type": "Polygon", "coordinates": [[[-120.30122, 49.87904], [-120.30122, 49.87487], [-120.30122, 49.87071], [-120.30122, 49.86654], [-120.30122, 49.86237], [-120.29497, 49.86237], [-120.28872, 49.86237], [-120.28247, 49.86237], [-120.27622, 49.86237], [-120.26997, 49.86237], [-120.26372, 49.86237], [-120.26372, 49.86654], [-120.26372, 49.87071], [-120.26372, 49.87487], [-120.26372, 49.87904], [-120.26372, 49.88321], [-120.26997, 49.88321], [-120.27622, 49.88321], [-120.28247, 49.88321], [-120.28872, 49.88321], [-120.29497, 49.88321], [-120.30122, 49.88321], [-120.30122, 49.87904]]]}, "properties": {"TENURE_NUMBER_ID": 516739, "OWNER_NAME": "ELK GOLD MINING CORP.", "TENURE_TYPE_DESCRIPTION": "Mineral", "TENURE_SUB_TYPE_DESCRIPTION": "CLAIM", "TITLE_TYPE_DESCRIPTION": "Mineral Cell Title Submission", "AREA_IN_HECTARES": 624.689, "ISSUE_DATE": "2005-07-11Z", "GOOD_TO_DATE": "2027-09-30Z", "_subject": true, "_neighbour": false}}, {"type": "Feature", "geometry": {"type": "Polygon", "coordinates": [[[-120.33247, 49.86654], [-120.33247, 49.86237], [-120.32622, 49.86237], [-120.31997, 49.86237], [-120.31372, 49.86237], [-120.30747, 49.86237], [-120.30122, 49.86237], [-120.30122, 49.86654], [-120.30747, 49.86654], [-120.31372, 49.86654], [-120.31372, 49.8707], [-120.31997, 49.8707], [-120.32622, 49.8707], [-120.33247, 49.8707], [-120.33247, 49.86654]]]}, "properties": {"TENURE_NUMBER_ID": 516743, "OWNER_NAME": "ELK GOLD MINING CORP.", "TENURE_TYPE_DESCRIPTION": "Mineral", "TENURE_SUB_TYPE_DESCRIPTION": "CLAIM", "TITLE_TYPE_DESCRIPTION": "Mineral Cell Title Submission", "AREA_IN_HECTARES": 166.607, "ISSUE_DATE": "2005-07-11Z", "GOOD_TO_DATE": "2027-09-30Z", "_subject": true, "_neighbour": false}}, {"type": "Feature", "geometry": {"type": "Polygon", "coordinates": [[[-120.35122, 49.81237], [-120.35122, 49.8082], [-120.34497, 49.8082], [-120.33872, 49.8082], [-120.33247, 49.8082], [-120.32622, 49.8082], [-120.31997, 49.8082], [-120.31372, 49.8082], [-120.30747, 49.8082], [-120.30122, 49.8082], [-120.30122, 49.81237], [-120.29497, 49.81237], [-120.29497, 49.81654], [-120.29497, 49.8207], [-120.28872, 49.8207], [-120.28872, 49.82487], [-120.28872, 49.82904], [-120.28872, 49.83321], [-120.28872, 49.83737], [-120.29497, 49.83737], [-120.30122, 49.83737], [-120.30747, 49.83737], [-120.31372, 49.83737], [-120.31997, 49.83737], [-120.32622, 49.83737], [-120.33247, 49.83737], [-120.33872, 49.83737], [-120.34497, 49.83737], [-120.34497, 49.8332], [-120.34497, 49.82904], [-120.34497, 49.82487], [-120.34497, 49.8207], [-120.34497, 49.81654], [-120.35122, 49.81654], [-120.35122, 49.81237]]]}, "properties": {"TENURE_NUMBER_ID": 516750, "OWNER_NAME": "ELK GOLD MINING CORP.", "TENURE_TYPE_DESCRIPTION": "Mineral", "TENURE_SUB_TYPE_DESCRIPTION": "CLAIM", "TITLE_TYPE_DESCRIPTION": "Mineral Cell Title Submission", "AREA_IN_HECTARES": 1271.493, "ISSUE_DATE": "2005-07-11Z", "GOOD_TO_DATE": "2027-09-30Z", "_subject": true, "_neighbour": false}}, {"type": "Feature", "geometry": {"type": "Polygon", "coordinates": [[[-120.34497, 49.79154], [-120.34497, 49.78737], [-120.34497, 49.7832], [-120.33872, 49.7832], [-120.33247, 49.7832], [-120.32622, 49.7832], [-120.31997, 49.7832], [-120.31372, 49.7832], [-120.31372, 49.77904], [-120.31372, 49.77487], [-120.31372, 49.7707], [-120.30747, 49.7707], [-120.30122, 49.7707], [-120.29497, 49.7707], [-120.28872, 49.7707], [-120.28872, 49.77487], [-120.28872, 49.77904], [-120.28872, 49.7832], [-120.29497, 49.7832], [-120.29497, 49.78737], [-120.29497, 49.79154], [-120.29497, 49.7957], [-120.29497, 49.79987], [-120.29497, 49.80404], [-120.29497, 49.8082], [-120.30122, 49.8082], [-120.30747, 49.8082], [-120.31372, 49.8082], [-120.31997, 49.8082], [-120.32622, 49.8082], [-120.33247, 49.8082], [-120.33872, 49.8082], [-120.33872, 49.80404], [-120.33872, 49.79987], [-120.33872, 49.7957], [-120.34497, 49.7957], [-120.34497, 49.79154]]]}, "properties": {"TENURE_NUMBER_ID": 516755, "OWNER_NAME": "ELK GOLD MINING CORP.", "TENURE_TYPE_DESCRIPTION": "Mineral", "TENURE_SUB_TYPE_DESCRIPTION": "CLAIM", "TITLE_TYPE_DESCRIPTION": "Mineral Cell Title Submission", "AREA_IN_HECTARES": 1188.843, "ISSUE_DATE": "2005-07-11Z", "GOOD_TO_DATE": "2027-09-30Z", "_subject": false, "_neighbour": false}}, {"type": "Feature", "geometry": {"type": "Polygon", "coordinates": [[[-120.39497, 49.8082], [-120.39497, 49.80403], [-120.39497, 49.79987], [-120.39497, 49.7957], [-120.39497, 49.79153], [-120.39497, 49.78737], [-120.38872, 49.78737], [-120.38247, 49.78737], [-120.37622, 49.78737], [-120.36997, 49.78737], [-120.36372, 49.78737], [-120.35747, 49.78737], [-120.35122, 49.78737], [-120.35122, 49.79154], [-120.34497, 49.79154], [-120.34497, 49.7957], [-120.33872, 49.7957], [-120.33872, 49.79987], [-120.33872, 49.80404], [-120.33872, 49.8082], [-120.34497, 49.8082], [-120.35122, 49.8082], [-120.35122, 49.81237], [-120.35747, 49.81237], [-120.36372, 49.81237], [-120.36997, 49.81237], [-120.37622, 49.81237], [-120.38247, 49.81237], [-120.38872, 49.81237], [-120.39497, 49.81237], [-120.39497, 49.8082]]]}, "properties": {"TENURE_NUMBER_ID": 516757, "OWNER_NAME": "ELK GOLD MINING CORP.", "TENURE_TYPE_DESCRIPTION": "Mineral", "TENURE_SUB_TYPE_DESCRIPTION": "CLAIM", "TITLE_TYPE_DESCRIPTION": "Mineral Cell Title Submission", "AREA_IN_HECTARES": 1021.841, "ISSUE_DATE": "2005-07-11Z", "GOOD_TO_DATE": "2027-09-30Z", "_subject": false, "_neighbour": false}}, {"type": "Feature", "geometry": {"type": "Polygon", "coordinates": [[[-120.41372, 49.82903], [-120.41372, 49.82487], [-120.41372, 49.8207], [-120.41372, 49.81653], [-120.41372, 49.81237], [-120.40747, 49.81237], [-120.40122, 49.81237], [-120.39497, 49.81237], [-120.38872, 49.81237], [-120.38247, 49.81237], [-120.37622, 49.81237], [-120.36997, 49.81237], [-120.36372, 49.81237], [-120.35747, 49.81237], [-120.35122, 49.81237], [-120.35122, 49.81654], [-120.34497, 49.81654], [-120.34497, 49.8207], [-120.34497, 49.82487], [-120.34497, 49.82904], [-120.34497, 49.8332], [-120.35122, 49.8332], [-120.35747, 49.8332], [-120.36372, 49.8332], [-120.36997, 49.8332], [-120.37622, 49.8332], [-120.38247, 49.8332], [-120.38872, 49.8332], [-120.39497, 49.8332], [-120.40122, 49.8332], [-120.40747, 49.8332], [-120.41372, 49.8332], [-120.41372, 49.82903]]]}, "properties": {"TENURE_NUMBER_ID": 516759, "OWNER_NAME": "ELK GOLD MINING CORP.", "TENURE_TYPE_DESCRIPTION": "Mineral", "TENURE_SUB_TYPE_DESCRIPTION": "CLAIM", "TITLE_TYPE_DESCRIPTION": "Mineral Cell Title Submission", "AREA_IN_HECTARES": 1125.588, "ISSUE_DATE": "2005-07-11Z", "GOOD_TO_DATE": "2027-09-30Z", "_subject": false, "_neighbour": false}}, {"type": "Feature", "geometry": {"type": "Polygon", "coordinates": [[[-120.37622, 49.85404], [-120.37622, 49.84987], [-120.37622, 49.8457], [-120.37622, 49.84154], [-120.37622, 49.83737], [-120.37622, 49.8332], [-120.36997, 49.8332], [-120.36372, 49.8332], [-120.35747, 49.8332], [-120.35122, 49.8332], [-120.34497, 49.8332], [-120.34497, 49.83737], [-120.34497, 49.84154], [-120.34497, 49.8457], [-120.34497, 49.84987], [-120.34497, 49.85404], [-120.34497, 49.8582], [-120.35122, 49.8582], [-120.35747, 49.8582], [-120.36372, 49.8582], [-120.36997, 49.8582], [-120.37622, 49.8582], [-120.37622, 49.85404]]]}, "properties": {"TENURE_NUMBER_ID": 516761, "OWNER_NAME": "ELK GOLD MINING CORP.", "TENURE_TYPE_DESCRIPTION": "Mineral", "TENURE_SUB_TYPE_DESCRIPTION": "CLAIM", "TITLE_TYPE_DESCRIPTION": "Mineral Cell Title Submission", "AREA_IN_HECTARES": 625.034, "ISSUE_DATE": "2005-07-11Z", "GOOD_TO_DATE": "2027-09-30Z", "_subject": false, "_neighbour": false}}, {"type": "Feature", "geometry": {"type": "Polygon", "coordinates": [[[-120.31579, 49.84532], [-120.30187, 49.84532], [-120.30187, 49.85431], [-120.31579, 49.85431], [-120.32273, 49.85431], [-120.32273, 49.84532], [-120.31579, 49.84532]]]}, "properties": {"TENURE_NUMBER_ID": 308695, "OWNER_NAME": "ELK GOLD MINING CORP.", "TENURE_TYPE_DESCRIPTION": "Mineral", "TENURE_SUB_TYPE_DESCRIPTION": "LEASE", "TITLE_TYPE_DESCRIPTION": "Mining Lease", "AREA_IN_HECTARES": 150, "ISSUE_DATE": "1992-09-14Z", "GOOD_TO_DATE": "2026-09-14Z", "_subject": true, "_neighbour": false}}, {"type": "Feature", "geometry": {"type": "Polygon", "coordinates": [[[-120.34497, 49.8582], [-120.34497, 49.85404], [-120.34497, 49.84987], [-120.34497, 49.8457], [-120.34497, 49.84154], [-120.34497, 49.83737], [-120.33872, 49.83737], [-120.33247, 49.83737], [-120.32622, 49.83737], [-120.31997, 49.83737], [-120.31372, 49.83737], [-120.30747, 49.83737], [-120.30122, 49.83737], [-120.29497, 49.83737], [-120.28872, 49.83737], [-120.28872, 49.84154], [-120.28247, 49.84154], [-120.27622, 49.84154], [-120.26996, 49.84154], [-120.26371, 49.84154], [-120.26371, 49.84571], [-120.26371, 49.84987], [-120.26372, 49.85404], [-120.26372, 49.85821], [-120.26372, 49.86237], [-120.26997, 49.86237], [-120.27622, 49.86237], [-120.28247, 49.86237], [-120.28872, 49.86237], [-120.29497, 49.86237], [-120.30122, 49.86237], [-120.30747, 49.86237], [-120.30747, 49.8582], [-120.30122, 49.8582], [-120.29497, 49.85821], [-120.29497, 49.85404], [-120.29497, 49.84987], [-120.29497, 49.84571], [-120.30122, 49.8457], [-120.30122, 49.84154], [-120.30747, 49.84154], [-120.31372, 49.84154], [-120.31997, 49.84154], [-120.32622, 49.84154], [-120.33247, 49.84154], [-120.33872, 49.84154], [-120.33872, 49.8457], [-120.33872, 49.84987], [-120.33872, 49.85404], [-120.33872, 49.8582], [-120.33247, 49.8582], [-120.33247, 49.86237], [-120.33872, 49.86237], [-120.34497, 49.86237], [-120.34497, 49.8582]]]}, "properties": {"TENURE_NUMBER_ID": 1079786, "CLAIM_NAME": "Elk Sub A", "OWNER_NAME": "ELK GOLD MINING CORP.", "TENURE_TYPE_DESCRIPTION": "Mineral", "TENURE_SUB_TYPE_DESCRIPTION": "CLAIM", "TITLE_TYPE_DESCRIPTION": "Mineral Cell Title Submission", "AREA_IN_HECTARES": 895.8114, "ISSUE_DATE": "2005-07-11Z", "GOOD_TO_DATE": "2027-09-30Z", "_subject": true, "_neighbour": false}}, {"type": "Feature", "geometry": {"type": "Polygon", "coordinates": [[[-120.26372, 49.91237], [-120.26372, 49.90821], [-120.26372, 49.90404], [-120.26372, 49.89987], [-120.26372, 49.89571], [-120.26372, 49.89154], [-120.26372, 49.88737], [-120.26372, 49.88321], [-120.25747, 49.88321], [-120.25122, 49.88321], [-120.24497, 49.88321], [-120.23872, 49.88321], [-120.23246, 49.88321], [-120.23247, 49.88737], [-120.23247, 49.89154], [-120.23247, 49.89571], [-120.23247, 49.89987], [-120.23247, 49.90404], [-120.23247, 49.90821], [-120.23247, 49.91237], [-120.23247, 49.91654], [-120.23872, 49.91654], [-120.24497, 49.91654], [-120.25122, 49.91654], [-120.25747, 49.91654], [-120.26372, 49.91654], [-120.26372, 49.91237]]]}, "properties": {"TENURE_NUMBER_ID": 1079047, "CLAIM_NAME": "ELK NORTH 1", "OWNER_NAME": "ELK GOLD MINING CORP.", "TENURE_TYPE_DESCRIPTION": "Mineral", "TENURE_SUB_TYPE_DESCRIPTION": "CLAIM", "TITLE_TYPE_DESCRIPTION": "Mineral Cell Title Submission", "AREA_IN_HECTARES": 832.4468, "ISSUE_DATE": "2020-10-07Z", "GOOD_TO_DATE": "2026-09-30Z", "_subject": false, "_neighbour": false}}, {"type": "Feature", "geometry": {"type": "Polygon", "coordinates": [[[-120.25122, 49.92071], [-120.25747, 49.92071], [-120.25747, 49.91654], [-120.25122, 49.91654], [-120.24497, 49.91654], [-120.23872, 49.91654], [-120.23247, 49.91654], [-120.23247, 49.91237], [-120.23247, 49.90821], [-120.23247, 49.90404], [-120.23247, 49.89987], [-120.23247, 49.89571], [-120.23247, 49.89154], [-120.22622, 49.89154], [-120.21996, 49.89154], [-120.21371, 49.89154], [-120.21371, 49.89571], [-120.21371, 49.89987], [-120.21372, 49.90404], [-120.21372, 49.90821], [-120.21372, 49.91237], [-120.21372, 49.91654], [-120.21372, 49.92071], [-120.21372, 49.92487], [-120.21372, 49.92904], [-120.21372, 49.93321], [-120.21372, 49.93737], [-120.21372, 49.94154], [-120.21372, 49.94571], [-120.21372, 49.94987], [-120.21372, 49.95404], [-120.21372, 49.95821], [-120.21372, 49.96238], [-120.21372, 49.96654], [-120.21997, 49.96654], [-120.22622, 49.96654], [-120.23247, 49.96654], [-120.23247, 49.96238], [-120.23247, 49.95821], [-120.23247, 49.95404], [-120.23247, 49.94987], [-120.23247, 49.94571], [-120.23247, 49.94154], [-120.23247, 49.93737], [-120.23247, 49.93321], [-120.23872, 49.93321], [-120.23872, 49.92904], [-120.24497, 49.92904], [-120.24497, 49.92487], [-120.25122, 49.92487], [-120.25122, 49.92071]]]}, "properties": {"TENURE_NUMBER_ID": 1079048, "CLAIM_NAME": "ELK NORTH 2", "OWNER_NAME": "ELK GOLD MINING CORP.", "TENURE_TYPE_DESCRIPTION": "Mineral", "TENURE_SUB_TYPE_DESCRIPTION": "CLAIM", "TITLE_TYPE_DESCRIPTION": "Mineral Cell Title Submission", "AREA_IN_HECTARES": 1331.1454, "ISSUE_DATE": "2020-10-07Z", "GOOD_TO_DATE": "2026-09-30Z", "_subject": false, "_neighbour": false}}, {"type": "Feature", "geometry": {"type": "MultiPolygon", "coordinates": [[[[-120.33872, 49.85404], [-120.33872, 49.84987], [-120.33872, 49.8457], [-120.33872, 49.84154], [-120.33247, 49.84154], [-120.32622, 49.84154], [-120.31997, 49.84154], [-120.31372, 49.84154], [-120.30747, 49.84154], [-120.30122, 49.84154], [-120.30122, 49.8457], [-120.29497, 49.84571], [-120.29497, 49.84987], [-120.29497, 49.85404], [-120.29497, 49.85821], [-120.30122, 49.8582], [-120.30747, 49.8582], [-120.30747, 49.86237], [-120.31372, 49.86237], [-120.31997, 49.86237], [-120.32622, 49.86237], [-120.33247, 49.86237], [-120.33247, 49.8582], [-120.33872, 49.8582], [-120.33872, 49.85404]], [[-120.31997, 49.85404], [-120.31372, 49.85404], [-120.30747, 49.85404], [-120.30747, 49.84987], [-120.30747, 49.8457], [-120.31372, 49.8457], [-120.31997, 49.8457], [-120.31997, 49.84987], [-120.31997, 49.85404]]]]}, "properties": {"TENURE_NUMBER_ID": 1085519, "OWNER_NAME": "ELK GOLD MINING CORP.", "TENURE_TYPE_DESCRIPTION": "Mineral", "TENURE_SUB_TYPE_DESCRIPTION": "LEASE", "TITLE_TYPE_DESCRIPTION": "Mining Lease", "AREA_IN_HECTARES": 496, "ISSUE_DATE": "2021-11-17Z", "GOOD_TO_DATE": "2026-11-17Z", "_subject": true, "_neighbour": false}}, {"type": "Feature", "geometry": {"type": "Polygon", "coordinates": [[[-120.41997, 49.8082], [-120.41997, 49.80403], [-120.41997, 49.79987], [-120.41997, 49.7957], [-120.41372, 49.7957], [-120.40747, 49.7957], [-120.40747, 49.79153], [-120.40747, 49.78737], [-120.40122, 49.78737], [-120.39497, 49.78737], [-120.39497, 49.79153], [-120.39497, 49.7957], [-120.39497, 49.79987], [-120.39497, 49.80403], [-120.39497, 49.8082], [-120.39497, 49.81237], [-120.40122, 49.81237], [-120.40747, 49.81237], [-120.41372, 49.81237], [-120.41997, 49.81237], [-120.41997, 49.8082]]]}, "properties": {"TENURE_NUMBER_ID": 1102883, "CLAIM_NAME": "Copperview North 1000", "OWNER_NAME": "VIZSLA COPPER CORP.", "TENURE_TYPE_DESCRIPTION": "Mineral", "TENURE_SUB_TYPE_DESCRIPTION": "CLAIM", "TITLE_TYPE_DESCRIPTION": "Mineral Cell Title Submission", "AREA_IN_HECTARES": 417.0646, "ISSUE_DATE": "2020-06-26Z", "GOOD_TO_DATE": "2028-11-10Z", "_subject": false, "_neighbour": true}}, {"type": "Feature", "geometry": {"type": "Polygon", "coordinates": [[[-120.21996, 49.88737], [-120.22621, 49.88737], [-120.22621, 49.88321], [-120.21996, 49.88321], [-120.21371, 49.88321], [-120.20746, 49.88321], [-120.20121, 49.88321], [-120.20121, 49.88737], [-120.20746, 49.88737], [-120.21371, 49.88737], [-120.21996, 49.88737]]]}, "properties": {"TENURE_NUMBER_ID": 1063741, "CLAIM_NAME": "KING", "OWNER_NAME": "BARRANCO GOLD MINING CORP.", "TENURE_TYPE_DESCRIPTION": "Mineral", "TENURE_SUB_TYPE_DESCRIPTION": "CLAIM", "TITLE_TYPE_DESCRIPTION": "Mineral Cell Title Submission", "AREA_IN_HECTARES": 83.2692, "ISSUE_DATE": "2018-10-12Z", "GOOD_TO_DATE": "2027-12-15Z", "_subject": false, "_neighbour": true}}, {"type": "Feature", "geometry": {"type": "MultiPolygon", "coordinates": [[[[-120.23247, 49.88737], [-120.23246, 49.88321], [-120.23246, 49.87904], [-120.23246, 49.87487], [-120.22621, 49.87487], [-120.21996, 49.87487], [-120.21371, 49.87487], [-120.20746, 49.87487], [-120.20121, 49.87487], [-120.19496, 49.87487], [-120.19496, 49.87904], [-120.19496, 49.88321], [-120.19496, 49.88737], [-120.19496, 49.89154], [-120.20121, 49.89154], [-120.20746, 49.89154], [-120.21371, 49.89154], [-120.21996, 49.89154], [-120.22622, 49.89154], [-120.23247, 49.89154], [-120.23247, 49.88737]], [[-120.22621, 49.88737], [-120.21996, 49.88737], [-120.21371, 49.88737], [-120.20746, 49.88737], [-120.20121, 49.88737], [-120.20121, 49.88321], [-120.20746, 49.88321], [-120.21371, 49.88321], [-120.21996, 49.88321], [-120.22621, 49.88321], [-120.22621, 49.88737]]]]}, "properties": {"TENURE_NUMBER_ID": 1067940, "CLAIM_NAME": "KING 2", "OWNER_NAME": "BARRANCO GOLD MINING CORP.", "TENURE_TYPE_DESCRIPTION": "Mineral", "TENURE_SUB_TYPE_DESCRIPTION": "CLAIM", "TITLE_TYPE_DESCRIPTION": "Mineral Cell Title Submission", "AREA_IN_HECTARES": 416.3675, "ISSUE_DATE": "2019-04-16Z", "GOOD_TO_DATE": "2027-12-15Z", "_subject": false, "_neighbour": true}}, {"type": "Feature", "geometry": {"type": "Polygon", "coordinates": [[[-120.23246, 49.87071], [-120.23246, 49.86654], [-120.22621, 49.86654], [-120.21996, 49.86654], [-120.21371, 49.86654], [-120.20746, 49.86654], [-120.20121, 49.86654], [-120.19496, 49.86654], [-120.18871, 49.86654], [-120.18246, 49.86654], [-120.17621, 49.86654], [-120.16996, 49.86654], [-120.16371, 49.86654], [-120.16371, 49.87071], [-120.16371, 49.87487], [-120.16996, 49.87487], [-120.17621, 49.87487], [-120.18246, 49.87487], [-120.18871, 49.87487], [-120.19496, 49.87487], [-120.20121, 49.87487], [-120.20746, 49.87487], [-120.21371, 49.87487], [-120.21996, 49.87487], [-120.22621, 49.87487], [-120.23246, 49.87487], [-120.23246, 49.87071]]]}, "properties": {"TENURE_NUMBER_ID": 1069933, "CLAIM_NAME": "KING - 4", "OWNER_NAME": "BARRANCO GOLD MINING CORP.", "TENURE_TYPE_DESCRIPTION": "Mineral", "TENURE_SUB_TYPE_DESCRIPTION": "CLAIM", "TITLE_TYPE_DESCRIPTION": "Mineral Cell Title Submission", "AREA_IN_HECTARES": 458.1164, "ISSUE_DATE": "2019-07-29Z", "GOOD_TO_DATE": "2027-12-15Z", "_subject": false, "_neighbour": true}}, {"type": "Feature", "geometry": {"type": "Polygon", "coordinates": [[[-120.22621, 49.86654], [-120.23246, 49.86654], [-120.23246, 49.86237], [-120.22621, 49.86237], [-120.21996, 49.86237], [-120.21371, 49.86237], [-120.20746, 49.86237], [-120.20121, 49.86237], [-120.19496, 49.86237], [-120.18871, 49.86237], [-120.18246, 49.86237], [-120.17621, 49.86237], [-120.16996, 49.86237], [-120.16371, 49.86237], [-120.15746, 49.86237], [-120.15746, 49.86654], [-120.15746, 49.87071], [-120.15746, 49.87488], [-120.15746, 49.87904], [-120.15746, 49.88321], [-120.15746, 49.88738], [-120.15746, 49.89154], [-120.15746, 49.89571], [-120.16371, 49.89571], [-120.16996, 49.89571], [-120.17621, 49.89571], [-120.18246, 49.89571], [-120.18871, 49.89571], [-120.19496, 49.89571], [-120.20121, 49.89571], [-120.20121, 49.89154], [-120.19496, 49.89154], [-120.18871, 49.89154], [-120.18246, 49.89154], [-120.17621, 49.89154], [-120.16996, 49.89154], [-120.16371, 49.89154], [-120.16371, 49.88737], [-120.16371, 49.88321], [-120.16371, 49.87904], [-120.16371, 49.87487], [-120.16371, 49.87071], [-120.16371, 49.86654], [-120.16996, 49.86654], [-120.17621, 49.86654], [-120.18246, 49.86654], [-120.18871, 49.86654], [-120.19496, 49.86654], [-120.20121, 49.86654], [-120.20746, 49.86654], [-120.21371, 49.86654], [-120.21996, 49.86654], [-120.22621, 49.86654]]]}, "properties": {"TENURE_NUMBER_ID": 1070217, "CLAIM_NAME": "KING - 5", "OWNER_NAME": "BARRANCO GOLD MINING CORP.", "TENURE_TYPE_DESCRIPTION": "Mineral", "TENURE_SUB_TYPE_DESCRIPTION": "CLAIM", "TITLE_TYPE_DESCRIPTION": "Mineral Cell Title Submission", "AREA_IN_HECTARES": 520.5226, "ISSUE_DATE": "2019-08-10Z", "GOOD_TO_DATE": "2027-12-15Z", "_subject": false, "_neighbour": true}}, {"type": "Feature", "geometry": {"type": "Polygon", "coordinates": [[[-120.23246, 49.85821], [-120.23246, 49.85404], [-120.22621, 49.85404], [-120.21996, 49.85404], [-120.21996, 49.84987], [-120.21371, 49.84987], [-120.20746, 49.84987], [-120.20121, 49.84987], [-120.19496, 49.84987], [-120.18871, 49.84987], [-120.18246, 49.84987], [-120.17621, 49.84987], [-120.16996, 49.84987], [-120.16371, 49.84987], [-120.15746, 49.84987], [-120.15121, 49.84987], [-120.15121, 49.85404], [-120.15121, 49.85821], [-120.15746, 49.85821], [-120.15746, 49.86237], [-120.16371, 49.86237], [-120.16996, 49.86237], [-120.17621, 49.86237], [-120.18246, 49.86237], [-120.18871, 49.86237], [-120.19496, 49.86237], [-120.20121, 49.86237], [-120.20746, 49.86237], [-120.21371, 49.86237], [-120.21996, 49.86237], [-120.22621, 49.86237], [-120.23246, 49.86237], [-120.23246, 49.85821]]]}, "properties": {"TENURE_NUMBER_ID": 1074979, "CLAIM_NAME": "KING - 7", "OWNER_NAME": "BARRANCO GOLD MINING CORP.", "TENURE_TYPE_DESCRIPTION": "Mineral", "TENURE_SUB_TYPE_DESCRIPTION": "CLAIM", "TITLE_TYPE_DESCRIPTION": "Mineral Cell Title Submission", "AREA_IN_HECTARES": 749.8649, "ISSUE_DATE": "2020-03-04Z", "GOOD_TO_DATE": "2027-12-15Z", "_subject": false, "_neighbour": true}}, {"type": "Feature", "geometry": {"type": "Polygon", "coordinates": [[[-120.21996, 49.84571], [-120.21996, 49.84154], [-120.21996, 49.83737], [-120.21996, 49.83321], [-120.21996, 49.82904], [-120.21996, 49.82487], [-120.21996, 49.82071], [-120.21371, 49.82071], [-120.20746, 49.82071], [-120.20121, 49.82071], [-120.19496, 49.82071], [-120.18871, 49.82071], [-120.18871, 49.82487], [-120.18871, 49.82904], [-120.18871, 49.83321], [-120.18871, 49.83737], [-120.18871, 49.84154], [-120.18246, 49.84154], [-120.17621, 49.84154], [-120.16996, 49.84154], [-120.16371, 49.84154], [-120.15746, 49.84154], [-120.15121, 49.84154], [-120.15121, 49.84571], [-120.14496, 49.84571], [-120.13871, 49.84571], [-120.13246, 49.84571], [-120.12621, 49.84571], [-120.11996, 49.84571], [-120.11996, 49.84988], [-120.11996, 49.85404], [-120.11996, 49.85821], [-120.11996, 49.86238], [-120.11996, 49.86654], [-120.11996, 49.87071], [-120.11996, 49.87488], [-120.12621, 49.87488], [-120.13246, 49.87488], [-120.13871, 49.87488], [-120.13871, 49.87071], [-120.13871, 49.86654], [-120.13871, 49.86238], [-120.13871, 49.85821], [-120.14496, 49.85821], [-120.15121, 49.85821], [-120.15121, 49.85404], [-120.15121, 49.84987], [-120.15746, 49.84987], [-120.16371, 49.84987], [-120.16996, 49.84987], [-120.17621, 49.84987], [-120.18246, 49.84987], [-120.18871, 49.84987], [-120.19496, 49.84987], [-120.20121, 49.84987], [-120.20746, 49.84987], [-120.21371, 49.84987], [-120.21996, 49.84987], [-120.21996, 49.84571]]]}, "properties": {"TENURE_NUMBER_ID": 1123657, "CLAIM_NAME": "NB North", "OWNER_NAME": "FLOW METALS CORP.", "TENURE_TYPE_DESCRIPTION": "Mineral", "TENURE_SUB_TYPE_DESCRIPTION": "CLAIM", "TITLE_TYPE_DESCRIPTION": "Mineral Cell Title Submission", "AREA_IN_HECTARES": 1541.7067, "ISSUE_DATE": "2025-05-27Z", "GOOD_TO_DATE": "2026-06-15Z", "_subject": false, "_neighbour": true}}, {"type": "Feature", "geometry": {"type": "Polygon", "coordinates": [[[-120.21996, 49.81654], [-120.21996, 49.81237], [-120.21997, 49.80821], [-120.21997, 49.80404], [-120.21997, 49.79987], [-120.21372, 49.79987], [-120.20747, 49.79987], [-120.20122, 49.79987], [-120.19497, 49.79988], [-120.18871, 49.79988], [-120.18246, 49.79988], [-120.17621, 49.79988], [-120.16996, 49.79988], [-120.16371, 49.79988], [-120.15746, 49.79988], [-120.15746, 49.80404], [-120.15746, 49.80821], [-120.15121, 49.80821], [-120.14496, 49.80821], [-120.14496, 49.81238], [-120.14496, 49.81654], [-120.14496, 49.82071], [-120.15121, 49.82071], [-120.15746, 49.82071], [-120.16371, 49.82071], [-120.16996, 49.82071], [-120.17621, 49.82071], [-120.18246, 49.82071], [-120.18871, 49.82071], [-120.19496, 49.82071], [-120.20121, 49.82071], [-120.20746, 49.82071], [-120.21371, 49.82071], [-120.21996, 49.82071], [-120.21996, 49.81654]]]}, "properties": {"TENURE_NUMBER_ID": 1123659, "CLAIM_NAME": "NB South", "OWNER_NAME": "FLOW METALS CORP.", "TENURE_TYPE_DESCRIPTION": "Mineral", "TENURE_SUB_TYPE_DESCRIPTION": "CLAIM", "TITLE_TYPE_DESCRIPTION": "Mineral Cell Title Submission", "AREA_IN_HECTARES": 1167.4867, "ISSUE_DATE": "2025-05-27Z", "GOOD_TO_DATE": "2026-06-15Z", "_subject": false, "_neighbour": true}}, {"type": "Feature", "geometry": {"type": "Polygon", "coordinates": [[[-120.33872, 49.8082], [-120.34497, 49.8082], [-120.34497, 49.80404], [-120.33872, 49.80404], [-120.33872, 49.8082]]]}, "properties": {"TENURE_NUMBER_ID": 1125517, "CLAIM_NAME": "Selasphorus platycercus", "OWNER_NAME": "CLEE, RICHARD REECE", "TENURE_TYPE_DESCRIPTION": "Placer", "TENURE_SUB_TYPE_DESCRIPTION": "APPLICATION", "TITLE_TYPE_DESCRIPTION": "Placer Cell Title Submission", "AREA_IN_HECTARES": 20.8514, "ISSUE_DATE": "2025-09-09Z", "GOOD_TO_DATE": "2026-09-09Z", "_subject": false, "_neighbour": true}}, {"type": "Feature", "geometry": {"type": "Polygon", "coordinates": [[[-120.34497, 49.7957], [-120.35122, 49.7957], [-120.35122, 49.79154], [-120.34497, 49.79154], [-120.34497, 49.7957]]]}, "properties": {"TENURE_NUMBER_ID": 1113107, "CLAIM_NAME": "Lacika", "OWNER_NAME": "MESZAROS, LASZLO", "TENURE_TYPE_DESCRIPTION": "Placer", "TENURE_SUB_TYPE_DESCRIPTION": "CLAIM", "TITLE_TYPE_DESCRIPTION": "Placer Cell Title Submission", "AREA_IN_HECTARES": 20.8566, "ISSUE_DATE": "2024-05-25Z", "GOOD_TO_DATE": "2027-05-25Z", "_subject": false, "_neighbour": true}}, {"type": "Feature", "geometry": {"type": "Polygon", "coordinates": [[[-120.23246, 49.84987], [-120.23246, 49.84571], [-120.22621, 49.84571], [-120.22621, 49.84154], [-120.23246, 49.84154], [-120.23246, 49.83737], [-120.23246, 49.83321], [-120.23246, 49.82904], [-120.23246, 49.82487], [-120.23246, 49.82071], [-120.23246, 49.81654], [-120.23247, 49.81237], [-120.23247, 49.80821], [-120.23247, 49.80404], [-120.23247, 49.79987], [-120.23247, 49.79571], [-120.23247, 49.79154], [-120.23247, 49.78737], [-120.23247, 49.78321], [-120.23247, 49.77904], [-120.23247, 49.77487], [-120.23247, 49.77071], [-120.22622, 49.77071], [-120.21997, 49.77071], [-120.21372, 49.77071], [-120.20747, 49.77071], [-120.20122, 49.77071], [-120.20122, 49.77488], [-120.20122, 49.77904], [-120.19497, 49.77904], [-120.18872, 49.77904], [-120.18872, 49.78321], [-120.19497, 49.78321], [-120.19497, 49.78738], [-120.19497, 49.79154], [-120.18872, 49.79154], [-120.18247, 49.79154], [-120.17622, 49.79154], [-120.16997, 49.79154], [-120.16996, 49.79571], [-120.16996, 49.79988], [-120.17621, 49.79988], [-120.18246, 49.79988], [-120.18871, 49.79988], [-120.19497, 49.79988], [-120.20122, 49.79987], [-120.20747, 49.79987], [-120.21372, 49.79987], [-120.21997, 49.79987], [-120.21997, 49.80404], [-120.21997, 49.80821], [-120.21996, 49.81237], [-120.21996, 49.81654], [-120.21996, 49.82071], [-120.21996, 49.82487], [-120.21996, 49.82904], [-120.21996, 49.83321], [-120.21996, 49.83737], [-120.21996, 49.84154], [-120.21996, 49.84571], [-120.21996, 49.84987], [-120.21996, 49.85404], [-120.22621, 49.85404], [-120.23246, 49.85404], [-120.23246, 49.84987]]]}, "properties": {"TENURE_NUMBER_ID": 1132148, "CLAIM_NAME": "COPPERVIEW PARADISE Trout", "OWNER_NAME": "RIPPON, DONALD JOHN", "TENURE_TYPE_DESCRIPTION": "Mineral", "TENURE_SUB_TYPE_DESCRIPTION": "APPLICATION", "TITLE_TYPE_DESCRIPTION": "Mineral Cell Title Submission", "AREA_IN_HECTARES": 1543.0973, "ISSUE_DATE": "2026-04-12Z", "GOOD_TO_DATE": "2027-04-12Z", "_subject": false, "_neighbour": true}}, {"type": "Feature", "geometry": {"type": "Polygon", "coordinates": [[[-120.38247, 49.81654], [-120.38872, 49.81654], [-120.38872, 49.81237], [-120.38247, 49.81237], [-120.38247, 49.81654]]]}, "properties": {"TENURE_NUMBER_ID": 1126155, "CLAIM_NAME": "ezy duzzit 1", "OWNER_NAME": "GALLISSANT, GERARD", "TENURE_TYPE_DESCRIPTION": "Placer", "TENURE_SUB_TYPE_DESCRIPTION": "CLAIM", "TITLE_TYPE_DESCRIPTION": "Placer Cell Title Submission", "AREA_IN_HECTARES": 20.8478, "ISSUE_DATE": "2025-09-23Z", "GOOD_TO_DATE": "2026-09-23Z", "_subject": false, "_neighbour": true}}, {"type": "Feature", "geometry": {"type": "Polygon", "coordinates": [[[-120.22621, 49.84571], [-120.23246, 49.84571], [-120.23246, 49.84154], [-120.22621, 49.84154], [-120.22621, 49.84571]]]}, "properties": {"TENURE_NUMBER_ID": 1127694, "OWNER_NAME": "MOREL, PETER", "TENURE_TYPE_DESCRIPTION": "Mineral", "TENURE_SUB_TYPE_DESCRIPTION": "APPLICATION", "TITLE_TYPE_DESCRIPTION": "Mineral Cell Title Submission", "AREA_IN_HECTARES": 20.835, "ISSUE_DATE": "2025-11-16Z", "GOOD_TO_DATE": "2026-11-16Z", "_subject": false, "_neighbour": true}}, {"type": "Feature", "geometry": {"type": "Polygon", "coordinates": [[[-120.50123, 49.80403], [-120.50123, 49.79987], [-120.49498, 49.79987], [-120.49498, 49.7957], [-120.48873, 49.7957], [-120.48873, 49.79153], [-120.48873, 49.78737], [-120.48873, 49.7832], [-120.48248, 49.7832], [-120.48248, 49.77903], [-120.47622, 49.77903], [-120.46997, 49.77903], [-120.46372, 49.77903], [-120.45747, 49.77903], [-120.45122, 49.77903], [-120.44497, 49.77903], [-120.43872, 49.77903], [-120.43247, 49.77903], [-120.42622, 49.77903], [-120.41997, 49.77903], [-120.41372, 49.77903], [-120.40747, 49.77903], [-120.40747, 49.77487], [-120.40747, 49.7707], [-120.40122, 49.7707], [-120.39497, 49.7707], [-120.38872, 49.7707], [-120.38247, 49.7707], [-120.37622, 49.7707], [-120.36997, 49.7707], [-120.36997, 49.77487], [-120.36372, 49.77487], [-120.35747, 49.77487], [-120.35747, 49.77904], [-120.35747, 49.7832], [-120.36372, 49.7832], [-120.36997, 49.7832], [-120.37622, 49.7832], [-120.37622, 49.78737], [-120.38247, 49.78737], [-120.38872, 49.78737], [-120.39497, 49.78737], [-120.40122, 49.78737], [-120.40747, 49.78737], [-120.40747, 49.79153], [-120.40747, 49.7957], [-120.41372, 49.7957], [-120.41997, 49.7957], [-120.42622, 49.7957], [-120.43247, 49.7957], [-120.43872, 49.7957], [-120.44497, 49.7957], [-120.45122, 49.7957], [-120.45747, 49.7957], [-120.46372, 49.7957], [-120.46372, 49.79987], [-120.46372, 49.80403], [-120.46372, 49.8082], [-120.46997, 49.8082], [-120.47622, 49.8082], [-120.48247, 49.8082], [-120.48873, 49.8082], [-120.49498, 49.8082], [-120.50123, 49.8082], [-120.50123, 49.80403]]]}, "properties": {"TENURE_NUMBER_ID": 1127307, "CLAIM_NAME": "New Conglin Creek 1", "OWNER_NAME": "BILLINGSLEY, RICHARD JOHN", "TENURE_TYPE_DESCRIPTION": "Mineral", "TENURE_SUB_TYPE_DESCRIPTION": "CLAIM", "TITLE_TYPE_DESCRIPTION": "Mineral Cell Title Submission", "AREA_IN_HECTARES": 1981.6263, "ISSUE_DATE": "2025-10-30Z", "GOOD_TO_DATE": "2027-09-25Z", "_subject": false, "_neighbour": true}}, {"type": "Feature", "geometry": {"type": "Polygon", "coordinates": [[[-120.36997, 49.8082], [-120.37622, 49.8082], [-120.37622, 49.80404], [-120.36997, 49.80404], [-120.36997, 49.8082]]]}, "properties": {"TENURE_NUMBER_ID": 1127737, "CLAIM_NAME": "Siwash creek", "OWNER_NAME": "PYVOVAR, IHOR", "TENURE_TYPE_DESCRIPTION": "Placer", "TENURE_SUB_TYPE_DESCRIPTION": "APPLICATION", "TITLE_TYPE_DESCRIPTION": "Placer Cell Title Submission", "AREA_IN_HECTARES": 20.8513, "ISSUE_DATE": "2025-11-19Z", "GOOD_TO_DATE": "2026-11-19Z", "_subject": false, "_neighbour": true}}, {"type": "Feature", "geometry": {"type": "Polygon", "coordinates": [[[-120.36372, 49.80404], [-120.36997, 49.80404], [-120.36997, 49.79987], [-120.36372, 49.79987], [-120.36372, 49.80404]]]}, "properties": {"TENURE_NUMBER_ID": 1127738, "CLAIM_NAME": "Siwash creek2", "OWNER_NAME": "PYVOVAR, IHOR", "TENURE_TYPE_DESCRIPTION": "Placer", "TENURE_SUB_TYPE_DESCRIPTION": "APPLICATION", "TITLE_TYPE_DESCRIPTION": "Placer Cell Title Submission", "AREA_IN_HECTARES": 20.853, "ISSUE_DATE": "2025-11-19Z", "GOOD_TO_DATE": "2026-11-19Z", "_subject": false, "_neighbour": true}}, {"type": "Feature", "geometry": {"type": "Polygon", "coordinates": [[[-120.31997, 49.91237], [-120.31997, 49.90821], [-120.31372, 49.90821], [-120.30747, 49.90821], [-120.30122, 49.90821], [-120.29497, 49.90821], [-120.28872, 49.90821], [-120.28247, 49.90821], [-120.28247, 49.91237], [-120.28247, 49.91654], [-120.28247, 49.92071], [-120.28247, 49.92487], [-120.28872, 49.92487], [-120.29497, 49.92487], [-120.30122, 49.92487], [-120.30122, 49.92904], [-120.30122, 49.93321], [-120.30122, 49.93737], [-120.30747, 49.93737], [-120.30747, 49.93321], [-120.30747, 49.92904], [-120.30747, 49.92487], [-120.30747, 49.92071], [-120.30747, 49.91654], [-120.31372, 49.91654], [-120.31997, 49.91654], [-120.31997, 49.91237]]]}, "properties": {"TENURE_NUMBER_ID": 1129981, "CLAIM_NAME": "COPPERVIEW PARADISE EAST", "OWNER_NAME": "RIPPON, DONALD JOHN", "TENURE_TYPE_DESCRIPTION": "Mineral", "TENURE_SUB_TYPE_DESCRIPTION": "APPLICATION", "TITLE_TYPE_DESCRIPTION": "Mineral Cell Title Submission", "AREA_IN_HECTARES": 478.4875, "ISSUE_DATE": "2026-02-07Z", "GOOD_TO_DATE": "2027-02-07Z", "_subject": false, "_neighbour": true}}, {"type": "Feature", "geometry": {"type": "Polygon", "coordinates": [[[-120.35747, 49.80404], [-120.36372, 49.80404], [-120.36372, 49.79987], [-120.35747, 49.79987], [-120.35747, 49.80404]]]}, "properties": {"TENURE_NUMBER_ID": 1130322, "CLAIM_NAME": "thor", "OWNER_NAME": "HANSEN, ANDERS MICHAEL", "TENURE_TYPE_DESCRIPTION": "Placer", "TENURE_SUB_TYPE_DESCRIPTION": "APPLICATION", "TITLE_TYPE_DESCRIPTION": "Placer Cell Title Submission", "AREA_IN_HECTARES": 20.8531, "ISSUE_DATE": "2026-02-19Z", "GOOD_TO_DATE": "2027-02-19Z", "_subject": false, "_neighbour": true}}, {"type": "Feature", "geometry": {"type": "Polygon", "coordinates": [[[-120.37622, 49.81237], [-120.38247, 49.81237], [-120.38247, 49.8082], [-120.37622, 49.8082], [-120.37622, 49.81237]]]}, "properties": {"TENURE_NUMBER_ID": 1126145, "CLAIM_NAME": "ezy duzzit", "OWNER_NAME": "GALLISSANT, GERARD", "TENURE_TYPE_DESCRIPTION": "Placer", "TENURE_SUB_TYPE_DESCRIPTION": "CLAIM", "TITLE_TYPE_DESCRIPTION": "Placer Cell Title Submission", "AREA_IN_HECTARES": 20.8495, "ISSUE_DATE": "2025-09-22Z", "GOOD_TO_DATE": "2026-09-22Z", "_subject": false, "_neighbour": true}}, {"type": "Feature", "geometry": {"type": "Polygon", "coordinates": [[[-120.38872, 49.9332], [-120.38872, 49.92904], [-120.38872, 49.92487], [-120.38872, 49.9207], [-120.38872, 49.91654], [-120.38872, 49.91237], [-120.38872, 49.9082], [-120.38247, 49.9082], [-120.37622, 49.9082], [-120.36997, 49.9082], [-120.36997, 49.91237], [-120.36372, 49.91237], [-120.35747, 49.91237], [-120.35747, 49.91654], [-120.35122, 49.91654], [-120.34497, 49.91654], [-120.33872, 49.91654], [-120.33247, 49.91654], [-120.32622, 49.91654], [-120.32622, 49.92071], [-120.31997, 49.92071], [-120.31997, 49.91654], [-120.31372, 49.91654], [-120.30747, 49.91654], [-120.30747, 49.92071], [-120.30747, 49.92487], [-120.30747, 49.92904], [-120.30747, 49.93321], [-120.30747, 49.93737], [-120.31372, 49.93737], [-120.31997, 49.93737], [-120.32622, 49.93737], [-120.33247, 49.93737], [-120.33872, 49.93737], [-120.34497, 49.93737], [-120.35122, 49.93737], [-120.35747, 49.93737], [-120.36372, 49.93737], [-120.36997, 49.93737], [-120.37622, 49.93737], [-120.38247, 49.93737], [-120.38872, 49.93737], [-120.38872, 49.9332]]]}, "properties": {"TENURE_NUMBER_ID": 1128946, "CLAIM_NAME": "COPPERVIEW PARADISE", "OWNER_NAME": "RIPPON, DONALD JOHN", "TENURE_TYPE_DESCRIPTION": "Mineral", "TENURE_SUB_TYPE_DESCRIPTION": "APPLICATION", "TITLE_TYPE_DESCRIPTION": "Mineral Cell Title Submission", "AREA_IN_HECTARES": 1497.6255, "ISSUE_DATE": "2026-01-05Z", "GOOD_TO_DATE": "2027-01-05Z", "_subject": false, "_neighbour": true}}, {"type": "Feature", "geometry": {"type": "Polygon", "coordinates": [[[-120.35122, 49.7957], [-120.35747, 49.7957], [-120.35747, 49.79154], [-120.35122, 49.79154], [-120.35122, 49.7957]]]}, "properties": {"TENURE_NUMBER_ID": 1129693, "CLAIM_NAME": "NPZ1", "OWNER_NAME": "BRIDDON, PHILIP JOSEPH", "TENURE_TYPE_DESCRIPTION": "Placer", "TENURE_SUB_TYPE_DESCRIPTION": "APPLICATION", "TITLE_TYPE_DESCRIPTION": "Placer Cell Title Submission", "AREA_IN_HECTARES": 20.8566, "ISSUE_DATE": "2026-01-30Z", "GOOD_TO_DATE": "2027-01-30Z", "_subject": false, "_neighbour": true}}, {"type": "Feature", "geometry": {"type": "Polygon", "coordinates": [[[-120.35122, 49.79987], [-120.35747, 49.79987], [-120.35747, 49.7957], [-120.35122, 49.7957], [-120.35122, 49.79987]]]}, "properties": {"TENURE_NUMBER_ID": 1126601, "CLAIM_NAME": "Doogles", "OWNER_NAME": "TKACHUK, DOUGLAS", "TENURE_TYPE_DESCRIPTION": "Placer", "TENURE_SUB_TYPE_DESCRIPTION": "CLAIM", "TITLE_TYPE_DESCRIPTION": "Placer Cell Title Submission", "AREA_IN_HECTARES": 20.8548, "ISSUE_DATE": "2025-09-29Z", "GOOD_TO_DATE": "2026-09-29Z", "_subject": false, "_neighbour": true}}, {"type": "Feature", "geometry": {"type": "Polygon", "coordinates": [[[-120.41372, 49.92487], [-120.41372, 49.9207], [-120.41372, 49.91654], [-120.41372, 49.91237], [-120.41372, 49.9082], [-120.40747, 49.9082], [-120.40122, 49.9082], [-120.39497, 49.9082], [-120.38872, 49.9082], [-120.38872, 49.91237], [-120.38872, 49.91654], [-120.38872, 49.9207], [-120.38872, 49.92487], [-120.38872, 49.92904], [-120.39497, 49.92904], [-120.40122, 49.92904], [-120.40747, 49.92904], [-120.41372, 49.92904], [-120.41372, 49.92487]]]}, "properties": {"TENURE_NUMBER_ID": 1126728, "CLAIM_NAME": "New Aspen Grove 3", "OWNER_NAME": "BILLINGSLEY, RICHARD JOHN", "TENURE_TYPE_DESCRIPTION": "Mineral", "TENURE_SUB_TYPE_DESCRIPTION": "APPLICATION", "TITLE_TYPE_DESCRIPTION": "Mineral Cell Title Submission", "AREA_IN_HECTARES": 416.0656, "ISSUE_DATE": "2025-10-01Z", "GOOD_TO_DATE": "2026-10-01Z", "_subject": false, "_neighbour": true}}, {"type": "Feature", "geometry": {"type": "Polygon", "coordinates": [[[-120.33247, 49.88737], [-120.33247, 49.8832], [-120.33247, 49.87904], [-120.33247, 49.87487], [-120.33247, 49.8707], [-120.32622, 49.8707], [-120.31997, 49.8707], [-120.31372, 49.8707], [-120.30747, 49.87071], [-120.30122, 49.87071], [-120.30122, 49.87487], [-120.30122, 49.87904], [-120.30122, 49.88321], [-120.29497, 49.88321], [-120.28872, 49.88321], [-120.28247, 49.88321], [-120.27622, 49.88321], [-120.26997, 49.88321], [-120.26372, 49.88321], [-120.26372, 49.88737], [-120.26372, 49.89154], [-120.26372, 49.89571], [-120.26372, 49.89987], [-120.26372, 49.90404], [-120.26372, 49.90821], [-120.26997, 49.90821], [-120.27622, 49.90821], [-120.28247, 49.90821], [-120.28872, 49.90821], [-120.29497, 49.90821], [-120.30122, 49.90821], [-120.30747, 49.90821], [-120.30747, 49.90404], [-120.30747, 49.89987], [-120.30747, 49.89571], [-120.30747, 49.89154], [-120.31372, 49.89154], [-120.31997, 49.89154], [-120.32622, 49.89154], [-120.33247, 49.89154], [-120.33247, 49.88737]]]}, "properties": {"TENURE_NUMBER_ID": 1126886, "CLAIM_NAME": "Home Brew", "OWNER_NAME": "COAST COPPER CORP.", "TENURE_TYPE_DESCRIPTION": "Mineral", "TENURE_SUB_TYPE_DESCRIPTION": "CLAIM", "TITLE_TYPE_DESCRIPTION": "Mineral Cell Title Submission", "AREA_IN_HECTARES": 1353.0039, "ISSUE_DATE": "2025-10-09Z", "GOOD_TO_DATE": "2028-05-20Z", "_subject": true, "_neighbour": false}}]}