{
 "type": "FeatureCollection",
 "synthetic": true,
 "data_source": "SYNTHETIC",
 "source_dataset": null,
 "source_endpoint": null,
 "licence": null,
 "attribution": "",
 "note": "FABRICATED claim boundaries and holders. There is no such property, and none of the holders named here is a real company. Generated by tools/make_demo_tenures.py so the demo can show a land package without drawing an invented deposit on somebody's real ground.",
 "subject_owner": "BEDROCK DEMO",
 "owners": [
  "BEDROCK DEMO",
  "Coast Range Resources Corp.",
  "Halden Minerals Ltd.",
  "Northline Metals Ltd.",
  "Perrin Gold Corp.",
  "Ridgeway Exploration Inc.",
  "SAMPLE, ALEX J.",
  "SAMPLE, MORGAN K."
 ],
 "clip_extent_wgs84": [
  -126.4691,
  52.5653,
  -126.3235,
  52.6423
 ],
 "neighbour_extent_wgs84": [
  -126.4691,
  52.5653,
  -126.3235,
  52.6423
 ],
 "neighbour_radius_m": 4000,
 "crs_of_source_model": "EPSG:32610",
 "features": [
  {
   "type": "Feature",
   "geometry": {
    "type": "Polygon",
    "coordinates": [
     [
      [
       -126.4327,
       52.6093
      ],
      [
       -126.4145,
       52.6093
      ],
      [
       -126.4145,
       52.6203
      ],
      [
       -126.4327,
       52.6203
      ],
      [
       -126.4327,
       52.6093
      ]
     ]
    ]
   },
   "properties": {
    "TENURE_NUMBER_ID": 900001,
    "CLAIM_NAME": "DEMO 001",
    "OWNER_NAME": "BEDROCK DEMO",
    "TENURE_TYPE_DESCRIPTION": "Mineral",
    "TENURE_SUB_TYPE_DESCRIPTION": "CLAIM",
    "TITLE_TYPE_DESCRIPTION": "Cell Title Submission",
    "AREA_IN_HECTARES": 169.9069,
    "ISSUE_DATE": "2022-05-18Z",
    "GOOD_TO_DATE": "2028-04-17Z",
    "_subject": true,
    "_neighbour": false
   }
  },
  {
   "type": "Feature",
   "geometry": {
    "type": "Polygon",
    "coordinates": [
     [
      [
       -126.4145,
       52.6093
      ],
      [
       -126.3963,
       52.6093
      ],
      [
       -126.3963,
       52.6203
      ],
      [
       -126.4145,
       52.6203
      ],
      [
       -126.4145,
       52.6093
      ]
     ]
    ]
   },
   "properties": {
    "TENURE_NUMBER_ID": 900002,
    "CLAIM_NAME": "DEMO 002",
    "OWNER_NAME": "BEDROCK DEMO",
    "TENURE_TYPE_DESCRIPTION": "Mineral",
    "TENURE_SUB_TYPE_DESCRIPTION": "CLAIM",
    "TITLE_TYPE_DESCRIPTION": "Cell Title Submission",
    "AREA_IN_HECTARES": 170.1128,
    "ISSUE_DATE": "2020-06-17Z",
    "GOOD_TO_DATE": "2031-05-13Z",
    "_subject": true,
    "_neighbour": false
   }
  },
  {
   "type": "Feature",
   "geometry": {
    "type": "Polygon",
    "coordinates": [
     [
      [
       -126.3963,
       52.6093
      ],
      [
       -126.3781,
       52.6093
      ],
      [
       -126.3781,
       52.6203
      ],
      [
       -126.3963,
       52.6203
      ],
      [
       -126.3963,
       52.6093
      ]
     ]
    ]
   },
   "properties": {
    "TENURE_NUMBER_ID": 900003,
    "CLAIM_NAME": "DEMO 003",
    "OWNER_NAME": "BEDROCK DEMO",
    "TENURE_TYPE_DESCRIPTION": "Mineral",
    "TENURE_SUB_TYPE_DESCRIPTION": "CLAIM",
    "TITLE_TYPE_DESCRIPTION": "Cell Title Submission",
    "AREA_IN_HECTARES": 176.5031,
    "ISSUE_DATE": "2016-03-11Z",
    "GOOD_TO_DATE": "2029-05-17Z",
    "_subject": true,
    "_neighbour": false
   }
  },
  {
   "type": "Feature",
   "geometry": {
    "type": "Polygon",
    "coordinates": [
     [
      [
       -126.4327,
       52.5983
      ],
      [
       -126.4145,
       52.5983
      ],
      [
       -126.4145,
       52.6093
      ],
      [
       -126.4327,
       52.6093
      ],
      [
       -126.4327,
       52.5983
      ]
     ]
    ]
   },
   "properties": {
    "TENURE_NUMBER_ID": 900004,
    "CLAIM_NAME": "DEMO 004",
    "OWNER_NAME": "BEDROCK DEMO",
    "TENURE_TYPE_DESCRIPTION": "Mineral",
    "TENURE_SUB_TYPE_DESCRIPTION": "CLAIM",
    "TITLE_TYPE_DESCRIPTION": "Cell Title Submission",
    "AREA_IN_HECTARES": 181.9969,
    "ISSUE_DATE": "2016-04-16Z",
    "GOOD_TO_DATE": "2029-01-12Z",
    "_subject": true,
    "_neighbour": false
   }
  },
  {
   "type": "Feature",
   "geometry": {
    "type": "Polygon",
    "coordinates": [
     [
      [
       -126.4145,
       52.5983
      ],
      [
       -126.3963,
       52.5983
      ],
      [
       -126.3963,
       52.6093
      ],
      [
       -126.4145,
       52.6093
      ],
      [
       -126.4145,
       52.5983
      ]
     ]
    ]
   },
   "properties": {
    "TENURE_NUMBER_ID": 900005,
    "CLAIM_NAME": "DEMO 005",
    "OWNER_NAME": "BEDROCK DEMO",
    "TENURE_TYPE_DESCRIPTION": "Mineral",
    "TENURE_SUB_TYPE_DESCRIPTION": "CLAIM",
    "TITLE_TYPE_DESCRIPTION": "Cell Title Submission",
    "AREA_IN_HECTARES": 177.1452,
    "ISSUE_DATE": "2020-08-14Z",
    "GOOD_TO_DATE": "2027-02-16Z",
    "_subject": true,
    "_neighbour": false
   }
  },
  {
   "type": "Feature",
   "geometry": {
    "type": "Polygon",
    "coordinates": [
     [
      [
       -126.3963,
       52.5983
      ],
      [
       -126.3781,
       52.5983
      ],
      [
       -126.3781,
       52.6093
      ],
      [
       -126.3963,
       52.6093
      ],
      [
       -126.3963,
       52.5983
      ]
     ]
    ]
   },
   "properties": {
    "TENURE_NUMBER_ID": 900006,
    "CLAIM_NAME": "DEMO 006",
    "OWNER_NAME": "BEDROCK DEMO",
    "TENURE_TYPE_DESCRIPTION": "Mineral",
    "TENURE_SUB_TYPE_DESCRIPTION": "CLAIM",
    "TITLE_TYPE_DESCRIPTION": "Cell Title Submission",
    "AREA_IN_HECTARES": 176.9984,
    "ISSUE_DATE": "2023-01-15Z",
    "GOOD_TO_DATE": "2027-07-18Z",
    "_subject": true,
    "_neighbour": false
   }
  },
  {
   "type": "Feature",
   "geometry": {
    "type": "Polygon",
    "coordinates": [
     [
      [
       -126.3781,
       52.5983
      ],
      [
       -126.3599,
       52.5983
      ],
      [
       -126.3599,
       52.6093
      ],
      [
       -126.3781,
       52.6093
      ],
      [
       -126.3781,
       52.5983
      ]
     ]
    ]
   },
   "properties": {
    "TENURE_NUMBER_ID": 900007,
    "CLAIM_NAME": "DEMO 007",
    "OWNER_NAME": "BEDROCK DEMO",
    "TENURE_TYPE_DESCRIPTION": "Mineral",
    "TENURE_SUB_TYPE_DESCRIPTION": "CLAIM",
    "TITLE_TYPE_DESCRIPTION": "Cell Title Submission",
    "AREA_IN_HECTARES": 182.0573,
    "ISSUE_DATE": "2018-03-16Z",
    "GOOD_TO_DATE": "2030-05-10Z",
    "_subject": true,
    "_neighbour": false
   }
  },
  {
   "type": "Feature",
   "geometry": {
    "type": "Polygon",
    "coordinates": [
     [
      [
       -126.4145,
       52.5873
      ],
      [
       -126.3963,
       52.5873
      ],
      [
       -126.3963,
       52.5983
      ],
      [
       -126.4145,
       52.5983
      ],
      [
       -126.4145,
       52.5873
      ]
     ]
    ]
   },
   "properties": {
    "TENURE_NUMBER_ID": 900008,
    "CLAIM_NAME": "DEMO 008",
    "OWNER_NAME": "BEDROCK DEMO",
    "TENURE_TYPE_DESCRIPTION": "Mineral",
    "TENURE_SUB_TYPE_DESCRIPTION": "CLAIM",
    "TITLE_TYPE_DESCRIPTION": "Cell Title Submission",
    "AREA_IN_HECTARES": 172.4182,
    "ISSUE_DATE": "2018-02-17Z",
    "GOOD_TO_DATE": "2029-09-15Z",
    "_subject": true,
    "_neighbour": false
   }
  },
  {
   "type": "Feature",
   "geometry": {
    "type": "Polygon",
    "coordinates": [
     [
      [
       -126.3963,
       52.5873
      ],
      [
       -126.3781,
       52.5873
      ],
      [
       -126.3781,
       52.5983
      ],
      [
       -126.3963,
       52.5983
      ],
      [
       -126.3963,
       52.5873
      ]
     ]
    ]
   },
   "properties": {
    "TENURE_NUMBER_ID": 900009,
    "CLAIM_NAME": "DEMO 009",
    "OWNER_NAME": "BEDROCK DEMO",
    "TENURE_TYPE_DESCRIPTION": "Mineral",
    "TENURE_SUB_TYPE_DESCRIPTION": "CLAIM",
    "TITLE_TYPE_DESCRIPTION": "Cell Title Submission",
    "AREA_IN_HECTARES": 173.1479,
    "ISSUE_DATE": "2016-06-12Z",
    "GOOD_TO_DATE": "2028-07-17Z",
    "_subject": true,
    "_neighbour": false
   }
  },
  {
   "type": "Feature",
   "geometry": {
    "type": "Polygon",
    "coordinates": [
     [
      [
       -126.3781,
       52.5873
      ],
      [
       -126.3599,
       52.5873
      ],
      [
       -126.3599,
       52.5983
      ],
      [
       -126.3781,
       52.5983
      ],
      [
       -126.3781,
       52.5873
      ]
     ]
    ]
   },
   "properties": {
    "TENURE_NUMBER_ID": 900010,
    "CLAIM_NAME": "DEMO 010",
    "OWNER_NAME": "BEDROCK DEMO",
    "TENURE_TYPE_DESCRIPTION": "Mineral",
    "TENURE_SUB_TYPE_DESCRIPTION": "CLAIM",
    "TITLE_TYPE_DESCRIPTION": "Cell Title Submission",
    "AREA_IN_HECTARES": 173.713,
    "ISSUE_DATE": "2019-05-18Z",
    "GOOD_TO_DATE": "2028-07-11Z",
    "_subject": true,
    "_neighbour": false
   }
  },
  {
   "type": "Feature",
   "geometry": {
    "type": "Polygon",
    "coordinates": [
     [
      [
       -126.3599,
       52.5873
      ],
      [
       -126.3417,
       52.5873
      ],
      [
       -126.3417,
       52.5983
      ],
      [
       -126.3599,
       52.5983
      ],
      [
       -126.3599,
       52.5873
      ]
     ]
    ]
   },
   "properties": {
    "TENURE_NUMBER_ID": 900011,
    "CLAIM_NAME": "DEMO 011",
    "OWNER_NAME": "BEDROCK DEMO",
    "TENURE_TYPE_DESCRIPTION": "Mineral",
    "TENURE_SUB_TYPE_DESCRIPTION": "CLAIM",
    "TITLE_TYPE_DESCRIPTION": "Cell Title Submission",
    "AREA_IN_HECTARES": 177.3688,
    "ISSUE_DATE": "2018-05-16Z",
    "GOOD_TO_DATE": "2030-01-13Z",
    "_subject": true,
    "_neighbour": false
   }
  },
  {
   "type": "Feature",
   "geometry": {
    "type": "Polygon",
    "coordinates": [
     [
      [
       -126.3963,
       52.5763
      ],
      [
       -126.3781,
       52.5763
      ],
      [
       -126.3781,
       52.5873
      ],
      [
       -126.3963,
       52.5873
      ],
      [
       -126.3963,
       52.5763
      ]
     ]
    ]
   },
   "properties": {
    "TENURE_NUMBER_ID": 900012,
    "CLAIM_NAME": "DEMO 012",
    "OWNER_NAME": "BEDROCK DEMO",
    "TENURE_TYPE_DESCRIPTION": "Mineral",
    "TENURE_SUB_TYPE_DESCRIPTION": "CLAIM",
    "TITLE_TYPE_DESCRIPTION": "Cell Title Submission",
    "AREA_IN_HECTARES": 182.9705,
    "ISSUE_DATE": "2018-03-12Z",
    "GOOD_TO_DATE": "2028-08-17Z",
    "_subject": true,
    "_neighbour": false
   }
  },
  {
   "type": "Feature",
   "geometry": {
    "type": "Polygon",
    "coordinates": [
     [
      [
       -126.3781,
       52.5763
      ],
      [
       -126.3599,
       52.5763
      ],
      [
       -126.3599,
       52.5873
      ],
      [
       -126.3781,
       52.5873
      ],
      [
       -126.3781,
       52.5763
      ]
     ]
    ]
   },
   "properties": {
    "TENURE_NUMBER_ID": 900013,
    "CLAIM_NAME": "DEMO 013",
    "OWNER_NAME": "BEDROCK DEMO",
    "TENURE_TYPE_DESCRIPTION": "Mineral",
    "TENURE_SUB_TYPE_DESCRIPTION": "CLAIM",
    "TITLE_TYPE_DESCRIPTION": "Cell Title Submission",
    "AREA_IN_HECTARES": 178.5121,
    "ISSUE_DATE": "2020-08-18Z",
    "GOOD_TO_DATE": "2029-03-15Z",
    "_subject": true,
    "_neighbour": false
   }
  },
  {
   "type": "Feature",
   "geometry": {
    "type": "Polygon",
    "coordinates": [
     [
      [
       -126.4145,
       52.5763
      ],
      [
       -126.3963,
       52.5763
      ],
      [
       -126.3963,
       52.5873
      ],
      [
       -126.4145,
       52.5873
      ],
      [
       -126.4145,
       52.5763
      ]
     ]
    ]
   },
   "properties": {
    "TENURE_NUMBER_ID": 900014,
    "CLAIM_NAME": "DEMO 014",
    "OWNER_NAME": "Northline Metals Ltd.",
    "TENURE_TYPE_DESCRIPTION": "Mineral",
    "TENURE_SUB_TYPE_DESCRIPTION": "CLAIM",
    "TITLE_TYPE_DESCRIPTION": "Cell Title Submission",
    "AREA_IN_HECTARES": 179.2811,
    "ISSUE_DATE": "2016-06-18Z",
    "GOOD_TO_DATE": "2030-01-12Z",
    "_subject": false,
    "_neighbour": true
   }
  },
  {
   "type": "Feature",
   "geometry": {
    "type": "Polygon",
    "coordinates": [
     [
      [
       -126.4509,
       52.5763
      ],
      [
       -126.4327,
       52.5763
      ],
      [
       -126.4327,
       52.5873
      ],
      [
       -126.4509,
       52.5873
      ],
      [
       -126.4509,
       52.5763
      ]
     ]
    ]
   },
   "properties": {
    "TENURE_NUMBER_ID": 900015,
    "CLAIM_NAME": "DEMO 015",
    "OWNER_NAME": "Northline Metals Ltd.",
    "TENURE_TYPE_DESCRIPTION": "Mineral",
    "TENURE_SUB_TYPE_DESCRIPTION": "CLAIM",
    "TITLE_TYPE_DESCRIPTION": "Cell Title Submission",
    "AREA_IN_HECTARES": 180.2495,
    "ISSUE_DATE": "2021-07-15Z",
    "GOOD_TO_DATE": "2030-07-12Z",
    "_subject": false,
    "_neighbour": true
   }
  },
  {
   "type": "Feature",
   "geometry": {
    "type": "Polygon",
    "coordinates": [
     [
      [
       -126.3781,
       52.6093
      ],
      [
       -126.3599,
       52.6093
      ],
      [
       -126.3599,
       52.6203
      ],
      [
       -126.3781,
       52.6203
      ],
      [
       -126.3781,
       52.6093
      ]
     ]
    ]
   },
   "properties": {
    "TENURE_NUMBER_ID": 900016,
    "CLAIM_NAME": "DEMO 016",
    "OWNER_NAME": "Northline Metals Ltd.",
    "TENURE_TYPE_DESCRIPTION": "Mineral",
    "TENURE_SUB_TYPE_DESCRIPTION": "CLAIM",
    "TITLE_TYPE_DESCRIPTION": "Cell Title Submission",
    "AREA_IN_HECTARES": 179.1475,
    "ISSUE_DATE": "2019-09-11Z",
    "GOOD_TO_DATE": "2029-07-10Z",
    "_subject": false,
    "_neighbour": true
   }
  },
  {
   "type": "Feature",
   "geometry": {
    "type": "Polygon",
    "coordinates": [
     [
      [
       -126.3599,
       52.6093
      ],
      [
       -126.3417,
       52.6093
      ],
      [
       -126.3417,
       52.6203
      ],
      [
       -126.3599,
       52.6203
      ],
      [
       -126.3599,
       52.6093
      ]
     ]
    ]
   },
   "properties": {
    "TENURE_NUMBER_ID": 900017,
    "CLAIM_NAME": "DEMO 017",
    "OWNER_NAME": "Northline Metals Ltd.",
    "TENURE_TYPE_DESCRIPTION": "Mineral",
    "TENURE_SUB_TYPE_DESCRIPTION": "CLAIM",
    "TITLE_TYPE_DESCRIPTION": "Cell Title Submission",
    "AREA_IN_HECTARES": 180.2344,
    "ISSUE_DATE": "2016-02-11Z",
    "GOOD_TO_DATE": "2029-03-16Z",
    "_subject": false,
    "_neighbour": true
   }
  },
  {
   "type": "Feature",
   "geometry": {
    "type": "Polygon",
    "coordinates": [
     [
      [
       -126.4509,
       52.6313
      ],
      [
       -126.4327,
       52.6313
      ],
      [
       -126.4327,
       52.6423
      ],
      [
       -126.4509,
       52.6423
      ],
      [
       -126.4509,
       52.6313
      ]
     ]
    ]
   },
   "properties": {
    "TENURE_NUMBER_ID": 900018,
    "CLAIM_NAME": "DEMO 018",
    "OWNER_NAME": "Northline Metals Ltd.",
    "TENURE_TYPE_DESCRIPTION": "Mineral",
    "TENURE_SUB_TYPE_DESCRIPTION": "CLAIM",
    "TITLE_TYPE_DESCRIPTION": "Cell Title Submission",
    "AREA_IN_HECTARES": 179.224,
    "ISSUE_DATE": "2017-07-17Z",
    "GOOD_TO_DATE": "2031-03-17Z",
    "_subject": false,
    "_neighbour": true
   }
  },
  {
   "type": "Feature",
   "geometry": {
    "type": "Polygon",
    "coordinates": [
     [
      [
       -126.4691,
       52.6313
      ],
      [
       -126.4509,
       52.6313
      ],
      [
       -126.4509,
       52.6423
      ],
      [
       -126.4691,
       52.6423
      ],
      [
       -126.4691,
       52.6313
      ]
     ]
    ]
   },
   "properties": {
    "TENURE_NUMBER_ID": 900019,
    "CLAIM_NAME": "DEMO 019",
    "OWNER_NAME": "Northline Metals Ltd.",
    "TENURE_TYPE_DESCRIPTION": "Mineral",
    "TENURE_SUB_TYPE_DESCRIPTION": "CLAIM",
    "TITLE_TYPE_DESCRIPTION": "Cell Title Submission",
    "AREA_IN_HECTARES": 175.7176,
    "ISSUE_DATE": "2022-03-16Z",
    "GOOD_TO_DATE": "2030-07-10Z",
    "_subject": false,
    "_neighbour": true
   }
  },
  {
   "type": "Feature",
   "geometry": {
    "type": "Polygon",
    "coordinates": [
     [
      [
       -126.4691,
       52.5873
      ],
      [
       -126.4509,
       52.5873
      ],
      [
       -126.4509,
       52.5983
      ],
      [
       -126.4691,
       52.5983
      ],
      [
       -126.4691,
       52.5873
      ]
     ]
    ]
   },
   "properties": {
    "TENURE_NUMBER_ID": 900020,
    "CLAIM_NAME": "DEMO 020",
    "OWNER_NAME": "Ridgeway Exploration Inc.",
    "TENURE_TYPE_DESCRIPTION": "Mineral",
    "TENURE_SUB_TYPE_DESCRIPTION": "CLAIM",
    "TITLE_TYPE_DESCRIPTION": "Cell Title Submission",
    "AREA_IN_HECTARES": 174.5179,
    "ISSUE_DATE": "2022-03-14Z",
    "GOOD_TO_DATE": "2027-03-19Z",
    "_subject": false,
    "_neighbour": true
   }
  },
  {
   "type": "Feature",
   "geometry": {
    "type": "Polygon",
    "coordinates": [
     [
      [
       -126.3417,
       52.6093
      ],
      [
       -126.3235,
       52.6093
      ],
      [
       -126.3235,
       52.6203
      ],
      [
       -126.3417,
       52.6203
      ],
      [
       -126.3417,
       52.6093
      ]
     ]
    ]
   },
   "properties": {
    "TENURE_NUMBER_ID": 900021,
    "CLAIM_NAME": "DEMO 021",
    "OWNER_NAME": "Ridgeway Exploration Inc.",
    "TENURE_TYPE_DESCRIPTION": "Mineral",
    "TENURE_SUB_TYPE_DESCRIPTION": "CLAIM",
    "TITLE_TYPE_DESCRIPTION": "Cell Title Submission",
    "AREA_IN_HECTARES": 169.2572,
    "ISSUE_DATE": "2022-03-17Z",
    "GOOD_TO_DATE": "2029-09-15Z",
    "_subject": false,
    "_neighbour": true
   }
  },
  {
   "type": "Feature",
   "geometry": {
    "type": "Polygon",
    "coordinates": [
     [
      [
       -126.3599,
       52.5763
      ],
      [
       -126.3417,
       52.5763
      ],
      [
       -126.3417,
       52.5873
      ],
      [
       -126.3599,
       52.5873
      ],
      [
       -126.3599,
       52.5763
      ]
     ]
    ]
   },
   "properties": {
    "TENURE_NUMBER_ID": 900022,
    "CLAIM_NAME": "DEMO 022",
    "OWNER_NAME": "Ridgeway Exploration Inc.",
    "TENURE_TYPE_DESCRIPTION": "Mineral",
    "TENURE_SUB_TYPE_DESCRIPTION": "CLAIM",
    "TITLE_TYPE_DESCRIPTION": "Cell Title Submission",
    "AREA_IN_HECTARES": 169.3151,
    "ISSUE_DATE": "2016-04-16Z",
    "GOOD_TO_DATE": "2029-07-11Z",
    "_subject": false,
    "_neighbour": true
   }
  },
  {
   "type": "Feature",
   "geometry": {
    "type": "Polygon",
    "coordinates": [
     [
      [
       -126.3417,
       52.6313
      ],
      [
       -126.3235,
       52.6313
      ],
      [
       -126.3235,
       52.6423
      ],
      [
       -126.3417,
       52.6423
      ],
      [
       -126.3417,
       52.6313
      ]
     ]
    ]
   },
   "properties": {
    "TENURE_NUMBER_ID": 900023,
    "CLAIM_NAME": "DEMO 023",
    "OWNER_NAME": "Ridgeway Exploration Inc.",
    "TENURE_TYPE_DESCRIPTION": "Mineral",
    "TENURE_SUB_TYPE_DESCRIPTION": "CLAIM",
    "TITLE_TYPE_DESCRIPTION": "Cell Title Submission",
    "AREA_IN_HECTARES": 168.8083,
    "ISSUE_DATE": "2020-03-11Z",
    "GOOD_TO_DATE": "2027-07-18Z",
    "_subject": false,
    "_neighbour": true
   }
  },
  {
   "type": "Feature",
   "geometry": {
    "type": "Polygon",
    "coordinates": [
     [
      [
       -126.4145,
       52.6313
      ],
      [
       -126.3963,
       52.6313
      ],
      [
       -126.3963,
       52.6423
      ],
      [
       -126.4145,
       52.6423
      ],
      [
       -126.4145,
       52.6313
      ]
     ]
    ]
   },
   "properties": {
    "TENURE_NUMBER_ID": 900024,
    "CLAIM_NAME": "DEMO 024",
    "OWNER_NAME": "Ridgeway Exploration Inc.",
    "TENURE_TYPE_DESCRIPTION": "Mineral",
    "TENURE_SUB_TYPE_DESCRIPTION": "CLAIM",
    "TITLE_TYPE_DESCRIPTION": "Cell Title Submission",
    "AREA_IN_HECTARES": 168.485,
    "ISSUE_DATE": "2017-01-14Z",
    "GOOD_TO_DATE": "2029-08-16Z",
    "_subject": false,
    "_neighbour": true
   }
  },
  {
   "type": "Feature",
   "geometry": {
    "type": "Polygon",
    "coordinates": [
     [
      [
       -126.3963,
       52.6203
      ],
      [
       -126.3781,
       52.6203
      ],
      [
       -126.3781,
       52.6313
      ],
      [
       -126.3963,
       52.6313
      ],
      [
       -126.3963,
       52.6203
      ]
     ]
    ]
   },
   "properties": {
    "TENURE_NUMBER_ID": 900025,
    "CLAIM_NAME": "DEMO 025",
    "OWNER_NAME": "Ridgeway Exploration Inc.",
    "TENURE_TYPE_DESCRIPTION": "Mineral",
    "TENURE_SUB_TYPE_DESCRIPTION": "CLAIM",
    "TITLE_TYPE_DESCRIPTION": "Cell Title Submission",
    "AREA_IN_HECTARES": 169.6358,
    "ISSUE_DATE": "2020-09-13Z",
    "GOOD_TO_DATE": "2028-05-15Z",
    "_subject": false,
    "_neighbour": true
   }
  },
  {
   "type": "Feature",
   "geometry": {
    "type": "Polygon",
    "coordinates": [
     [
      [
       -126.4145,
       52.5653
      ],
      [
       -126.3963,
       52.5653
      ],
      [
       -126.3963,
       52.5763
      ],
      [
       -126.4145,
       52.5763
      ],
      [
       -126.4145,
       52.5653
      ]
     ]
    ]
   },
   "properties": {
    "TENURE_NUMBER_ID": 900026,
    "CLAIM_NAME": "DEMO 026",
    "OWNER_NAME": "Coast Range Resources Corp.",
    "TENURE_TYPE_DESCRIPTION": "Mineral",
    "TENURE_SUB_TYPE_DESCRIPTION": "CLAIM",
    "TITLE_TYPE_DESCRIPTION": "Cell Title Submission",
    "AREA_IN_HECTARES": 179.2069,
    "ISSUE_DATE": "2016-05-12Z",
    "GOOD_TO_DATE": "2030-04-13Z",
    "_subject": false,
    "_neighbour": true
   }
  },
  {
   "type": "Feature",
   "geometry": {
    "type": "Polygon",
    "coordinates": [
     [
      [
       -126.3599,
       52.5983
      ],
      [
       -126.3417,
       52.5983
      ],
      [
       -126.3417,
       52.6093
      ],
      [
       -126.3599,
       52.6093
      ],
      [
       -126.3599,
       52.5983
      ]
     ]
    ]
   },
   "properties": {
    "TENURE_NUMBER_ID": 900027,
    "CLAIM_NAME": "DEMO 027",
    "OWNER_NAME": "Coast Range Resources Corp.",
    "TENURE_TYPE_DESCRIPTION": "Mineral",
    "TENURE_SUB_TYPE_DESCRIPTION": "CLAIM",
    "TITLE_TYPE_DESCRIPTION": "Cell Title Submission",
    "AREA_IN_HECTARES": 179.5962,
    "ISSUE_DATE": "2020-06-15Z",
    "GOOD_TO_DATE": "2030-07-13Z",
    "_subject": false,
    "_neighbour": true
   }
  },
  {
   "type": "Feature",
   "geometry": {
    "type": "Polygon",
    "coordinates": [
     [
      [
       -126.3417,
       52.5873
      ],
      [
       -126.3235,
       52.5873
      ],
      [
       -126.3235,
       52.5983
      ],
      [
       -126.3417,
       52.5983
      ],
      [
       -126.3417,
       52.5873
      ]
     ]
    ]
   },
   "properties": {
    "TENURE_NUMBER_ID": 900028,
    "CLAIM_NAME": "DEMO 028",
    "OWNER_NAME": "Coast Range Resources Corp.",
    "TENURE_TYPE_DESCRIPTION": "Mineral",
    "TENURE_SUB_TYPE_DESCRIPTION": "CLAIM",
    "TITLE_TYPE_DESCRIPTION": "Cell Title Submission",
    "AREA_IN_HECTARES": 173.9472,
    "ISSUE_DATE": "2016-09-11Z",
    "GOOD_TO_DATE": "2027-01-19Z",
    "_subject": false,
    "_neighbour": true
   }
  },
  {
   "type": "Feature",
   "geometry": {
    "type": "Polygon",
    "coordinates": [
     [
      [
       -126.3599,
       52.5653
      ],
      [
       -126.3417,
       52.5653
      ],
      [
       -126.3417,
       52.5763
      ],
      [
       -126.3599,
       52.5763
      ],
      [
       -126.3599,
       52.5653
      ]
     ]
    ]
   },
   "properties": {
    "TENURE_NUMBER_ID": 900029,
    "CLAIM_NAME": "DEMO 029",
    "OWNER_NAME": "Coast Range Resources Corp.",
    "TENURE_TYPE_DESCRIPTION": "Mineral",
    "TENURE_SUB_TYPE_DESCRIPTION": "CLAIM",
    "TITLE_TYPE_DESCRIPTION": "Cell Title Submission",
    "AREA_IN_HECTARES": 179.0459,
    "ISSUE_DATE": "2020-09-18Z",
    "GOOD_TO_DATE": "2030-09-16Z",
    "_subject": false,
    "_neighbour": true
   }
  },
  {
   "type": "Feature",
   "geometry": {
    "type": "Polygon",
    "coordinates": [
     [
      [
       -126.3417,
       52.5763
      ],
      [
       -126.3235,
       52.5763
      ],
      [
       -126.3235,
       52.5873
      ],
      [
       -126.3417,
       52.5873
      ],
      [
       -126.3417,
       52.5763
      ]
     ]
    ]
   },
   "properties": {
    "TENURE_NUMBER_ID": 900030,
    "CLAIM_NAME": "DEMO 030",
    "OWNER_NAME": "Coast Range Resources Corp.",
    "TENURE_TYPE_DESCRIPTION": "Mineral",
    "TENURE_SUB_TYPE_DESCRIPTION": "CLAIM",
    "TITLE_TYPE_DESCRIPTION": "Cell Title Submission",
    "AREA_IN_HECTARES": 178.4983,
    "ISSUE_DATE": "2018-03-13Z",
    "GOOD_TO_DATE": "2029-08-16Z",
    "_subject": false,
    "_neighbour": true
   }
  },
  {
   "type": "Feature",
   "geometry": {
    "type": "Polygon",
    "coordinates": [
     [
      [
       -126.3963,
       52.6313
      ],
      [
       -126.3781,
       52.6313
      ],
      [
       -126.3781,
       52.6423
      ],
      [
       -126.3963,
       52.6423
      ],
      [
       -126.3963,
       52.6313
      ]
     ]
    ]
   },
   "properties": {
    "TENURE_NUMBER_ID": 900031,
    "CLAIM_NAME": "DEMO 031",
    "OWNER_NAME": "Coast Range Resources Corp.",
    "TENURE_TYPE_DESCRIPTION": "Mineral",
    "TENURE_SUB_TYPE_DESCRIPTION": "CLAIM",
    "TITLE_TYPE_DESCRIPTION": "Cell Title Submission",
    "AREA_IN_HECTARES": 181.7769,
    "ISSUE_DATE": "2022-04-18Z",
    "GOOD_TO_DATE": "2028-07-16Z",
    "_subject": false,
    "_neighbour": true
   }
  },
  {
   "type": "Feature",
   "geometry": {
    "type": "Polygon",
    "coordinates": [
     [
      [
       -126.4145,
       52.6203
      ],
      [
       -126.3963,
       52.6203
      ],
      [
       -126.3963,
       52.6313
      ],
      [
       -126.4145,
       52.6313
      ],
      [
       -126.4145,
       52.6203
      ]
     ]
    ]
   },
   "properties": {
    "TENURE_NUMBER_ID": 900032,
    "CLAIM_NAME": "DEMO 032",
    "OWNER_NAME": "Halden Minerals Ltd.",
    "TENURE_TYPE_DESCRIPTION": "Mineral",
    "TENURE_SUB_TYPE_DESCRIPTION": "CLAIM",
    "TITLE_TYPE_DESCRIPTION": "Cell Title Submission",
    "AREA_IN_HECTARES": 170.5238,
    "ISSUE_DATE": "2019-01-19Z",
    "GOOD_TO_DATE": "2029-07-11Z",
    "_subject": false,
    "_neighbour": true
   }
  },
  {
   "type": "Feature",
   "geometry": {
    "type": "Polygon",
    "coordinates": [
     [
      [
       -126.4509,
       52.5653
      ],
      [
       -126.4327,
       52.5653
      ],
      [
       -126.4327,
       52.5763
      ],
      [
       -126.4509,
       52.5763
      ],
      [
       -126.4509,
       52.5653
      ]
     ]
    ]
   },
   "properties": {
    "TENURE_NUMBER_ID": 900033,
    "CLAIM_NAME": "DEMO 033",
    "OWNER_NAME": "Halden Minerals Ltd.",
    "TENURE_TYPE_DESCRIPTION": "Mineral",
    "TENURE_SUB_TYPE_DESCRIPTION": "CLAIM",
    "TITLE_TYPE_DESCRIPTION": "Cell Title Submission",
    "AREA_IN_HECTARES": 172.8241,
    "ISSUE_DATE": "2022-01-14Z",
    "GOOD_TO_DATE": "2028-07-11Z",
    "_subject": false,
    "_neighbour": true
   }
  },
  {
   "type": "Feature",
   "geometry": {
    "type": "Polygon",
    "coordinates": [
     [
      [
       -126.4509,
       52.5873
      ],
      [
       -126.4327,
       52.5873
      ],
      [
       -126.4327,
       52.5983
      ],
      [
       -126.4509,
       52.5983
      ],
      [
       -126.4509,
       52.5873
      ]
     ]
    ]
   },
   "properties": {
    "TENURE_NUMBER_ID": 900034,
    "CLAIM_NAME": "DEMO 034",
    "OWNER_NAME": "Halden Minerals Ltd.",
    "TENURE_TYPE_DESCRIPTION": "Mineral",
    "TENURE_SUB_TYPE_DESCRIPTION": "CLAIM",
    "TITLE_TYPE_DESCRIPTION": "Cell Title Submission",
    "AREA_IN_HECTARES": 170.1429,
    "ISSUE_DATE": "2022-04-10Z",
    "GOOD_TO_DATE": "2028-06-16Z",
    "_subject": false,
    "_neighbour": true
   }
  },
  {
   "type": "Feature",
   "geometry": {
    "type": "Polygon",
    "coordinates": [
     [
      [
       -126.4691,
       52.6093
      ],
      [
       -126.4509,
       52.6093
      ],
      [
       -126.4509,
       52.6203
      ],
      [
       -126.4691,
       52.6203
      ],
      [
       -126.4691,
       52.6093
      ]
     ]
    ]
   },
   "properties": {
    "TENURE_NUMBER_ID": 900035,
    "CLAIM_NAME": "DEMO 035",
    "OWNER_NAME": "Halden Minerals Ltd.",
    "TENURE_TYPE_DESCRIPTION": "Mineral",
    "TENURE_SUB_TYPE_DESCRIPTION": "CLAIM",
    "TITLE_TYPE_DESCRIPTION": "Cell Title Submission",
    "AREA_IN_HECTARES": 183.0022,
    "ISSUE_DATE": "2018-09-18Z",
    "GOOD_TO_DATE": "2029-02-13Z",
    "_subject": false,
    "_neighbour": true
   }
  },
  {
   "type": "Feature",
   "geometry": {
    "type": "Polygon",
    "coordinates": [
     [
      [
       -126.4327,
       52.6313
      ],
      [
       -126.4145,
       52.6313
      ],
      [
       -126.4145,
       52.6423
      ],
      [
       -126.4327,
       52.6423
      ],
      [
       -126.4327,
       52.6313
      ]
     ]
    ]
   },
   "properties": {
    "TENURE_NUMBER_ID": 900036,
    "CLAIM_NAME": "DEMO 036",
    "OWNER_NAME": "Halden Minerals Ltd.",
    "TENURE_TYPE_DESCRIPTION": "Mineral",
    "TENURE_SUB_TYPE_DESCRIPTION": "CLAIM",
    "TITLE_TYPE_DESCRIPTION": "Cell Title Submission",
    "AREA_IN_HECTARES": 168.8781,
    "ISSUE_DATE": "2021-05-13Z",
    "GOOD_TO_DATE": "2031-04-13Z",
    "_subject": false,
    "_neighbour": true
   }
  },
  {
   "type": "Feature",
   "geometry": {
    "type": "Polygon",
    "coordinates": [
     [
      [
       -126.3963,
       52.5653
      ],
      [
       -126.3781,
       52.5653
      ],
      [
       -126.3781,
       52.5763
      ],
      [
       -126.3963,
       52.5763
      ],
      [
       -126.3963,
       52.5653
      ]
     ]
    ]
   },
   "properties": {
    "TENURE_NUMBER_ID": 900037,
    "CLAIM_NAME": "DEMO 037",
    "OWNER_NAME": "Halden Minerals Ltd.",
    "TENURE_TYPE_DESCRIPTION": "Mineral",
    "TENURE_SUB_TYPE_DESCRIPTION": "CLAIM",
    "TITLE_TYPE_DESCRIPTION": "Cell Title Submission",
    "AREA_IN_HECTARES": 173.2028,
    "ISSUE_DATE": "2021-04-13Z",
    "GOOD_TO_DATE": "2030-06-19Z",
    "_subject": false,
    "_neighbour": true
   }
  },
  {
   "type": "Feature",
   "geometry": {
    "type": "Polygon",
    "coordinates": [
     [
      [
       -126.4691,
       52.5653
      ],
      [
       -126.4509,
       52.5653
      ],
      [
       -126.4509,
       52.5763
      ],
      [
       -126.4691,
       52.5763
      ],
      [
       -126.4691,
       52.5653
      ]
     ]
    ]
   },
   "properties": {
    "TENURE_NUMBER_ID": 900038,
    "CLAIM_NAME": "DEMO 038",
    "OWNER_NAME": "Perrin Gold Corp.",
    "TENURE_TYPE_DESCRIPTION": "Mineral",
    "TENURE_SUB_TYPE_DESCRIPTION": "CLAIM",
    "TITLE_TYPE_DESCRIPTION": "Cell Title Submission",
    "AREA_IN_HECTARES": 168.2103,
    "ISSUE_DATE": "2018-09-11Z",
    "GOOD_TO_DATE": "2028-05-15Z",
    "_subject": false,
    "_neighbour": true
   }
  },
  {
   "type": "Feature",
   "geometry": {
    "type": "Polygon",
    "coordinates": [
     [
      [
       -126.3599,
       52.6203
      ],
      [
       -126.3417,
       52.6203
      ],
      [
       -126.3417,
       52.6313
      ],
      [
       -126.3599,
       52.6313
      ],
      [
       -126.3599,
       52.6203
      ]
     ]
    ]
   },
   "properties": {
    "TENURE_NUMBER_ID": 900039,
    "CLAIM_NAME": "DEMO 039",
    "OWNER_NAME": "Perrin Gold Corp.",
    "TENURE_TYPE_DESCRIPTION": "Mineral",
    "TENURE_SUB_TYPE_DESCRIPTION": "CLAIM",
    "TITLE_TYPE_DESCRIPTION": "Cell Title Submission",
    "AREA_IN_HECTARES": 177.5105,
    "ISSUE_DATE": "2020-07-10Z",
    "GOOD_TO_DATE": "2028-06-13Z",
    "_subject": false,
    "_neighbour": true
   }
  },
  {
   "type": "Feature",
   "geometry": {
    "type": "Polygon",
    "coordinates": [
     [
      [
       -126.4509,
       52.6203
      ],
      [
       -126.4327,
       52.6203
      ],
      [
       -126.4327,
       52.6313
      ],
      [
       -126.4509,
       52.6313
      ],
      [
       -126.4509,
       52.6203
      ]
     ]
    ]
   },
   "properties": {
    "TENURE_NUMBER_ID": 900040,
    "CLAIM_NAME": "DEMO 040",
    "OWNER_NAME": "Perrin Gold Corp.",
    "TENURE_TYPE_DESCRIPTION": "Mineral",
    "TENURE_SUB_TYPE_DESCRIPTION": "CLAIM",
    "TITLE_TYPE_DESCRIPTION": "Cell Title Submission",
    "AREA_IN_HECTARES": 173.2516,
    "ISSUE_DATE": "2023-01-17Z",
    "GOOD_TO_DATE": "2027-03-18Z",
    "_subject": false,
    "_neighbour": true
   }
  },
  {
   "type": "Feature",
   "geometry": {
    "type": "Polygon",
    "coordinates": [
     [
      [
       -126.4327,
       52.5873
      ],
      [
       -126.4145,
       52.5873
      ],
      [
       -126.4145,
       52.5983
      ],
      [
       -126.4327,
       52.5983
      ],
      [
       -126.4327,
       52.5873
      ]
     ]
    ]
   },
   "properties": {
    "TENURE_NUMBER_ID": 900041,
    "CLAIM_NAME": "DEMO 041",
    "OWNER_NAME": "Perrin Gold Corp.",
    "TENURE_TYPE_DESCRIPTION": "Mineral",
    "TENURE_SUB_TYPE_DESCRIPTION": "CLAIM",
    "TITLE_TYPE_DESCRIPTION": "Cell Title Submission",
    "AREA_IN_HECTARES": 180.5255,
    "ISSUE_DATE": "2022-05-10Z",
    "GOOD_TO_DATE": "2028-01-12Z",
    "_subject": false,
    "_neighbour": true
   }
  },
  {
   "type": "Feature",
   "geometry": {
    "type": "Polygon",
    "coordinates": [
     [
      [
       -126.3599,
       52.6313
      ],
      [
       -126.3417,
       52.6313
      ],
      [
       -126.3417,
       52.6423
      ],
      [
       -126.3599,
       52.6423
      ],
      [
       -126.3599,
       52.6313
      ]
     ]
    ]
   },
   "properties": {
    "TENURE_NUMBER_ID": 900042,
    "CLAIM_NAME": "DEMO 042",
    "OWNER_NAME": "Perrin Gold Corp.",
    "TENURE_TYPE_DESCRIPTION": "Mineral",
    "TENURE_SUB_TYPE_DESCRIPTION": "CLAIM",
    "TITLE_TYPE_DESCRIPTION": "Cell Title Submission",
    "AREA_IN_HECTARES": 175.2136,
    "ISSUE_DATE": "2019-03-18Z",
    "GOOD_TO_DATE": "2027-01-15Z",
    "_subject": false,
    "_neighbour": true
   }
  },
  {
   "type": "Feature",
   "geometry": {
    "type": "Polygon",
    "coordinates": [
     [
      [
       -126.4327,
       52.6203
      ],
      [
       -126.4145,
       52.6203
      ],
      [
       -126.4145,
       52.6313
      ],
      [
       -126.4327,
       52.6313
      ],
      [
       -126.4327,
       52.6203
      ]
     ]
    ]
   },
   "properties": {
    "TENURE_NUMBER_ID": 900043,
    "CLAIM_NAME": "DEMO 043",
    "OWNER_NAME": "Perrin Gold Corp.",
    "TENURE_TYPE_DESCRIPTION": "Mineral",
    "TENURE_SUB_TYPE_DESCRIPTION": "CLAIM",
    "TITLE_TYPE_DESCRIPTION": "Cell Title Submission",
    "AREA_IN_HECTARES": 181.196,
    "ISSUE_DATE": "2016-09-12Z",
    "GOOD_TO_DATE": "2030-05-17Z",
    "_subject": false,
    "_neighbour": true
   }
  },
  {
   "type": "Feature",
   "geometry": {
    "type": "Polygon",
    "coordinates": [
     [
      [
       -126.3417,
       52.5653
      ],
      [
       -126.3235,
       52.5653
      ],
      [
       -126.3235,
       52.5763
      ],
      [
       -126.3417,
       52.5763
      ],
      [
       -126.3417,
       52.5653
      ]
     ]
    ]
   },
   "properties": {
    "TENURE_NUMBER_ID": 900044,
    "CLAIM_NAME": "DEMO 044",
    "OWNER_NAME": "SAMPLE, ALEX J.",
    "TENURE_TYPE_DESCRIPTION": "Mineral",
    "TENURE_SUB_TYPE_DESCRIPTION": "CLAIM",
    "TITLE_TYPE_DESCRIPTION": "Cell Title Submission",
    "AREA_IN_HECTARES": 169.9064,
    "ISSUE_DATE": "2018-06-11Z",
    "GOOD_TO_DATE": "2027-05-18Z",
    "_subject": false,
    "_neighbour": true
   }
  },
  {
   "type": "Feature",
   "geometry": {
    "type": "Polygon",
    "coordinates": [
     [
      [
       -126.4327,
       52.5763
      ],
      [
       -126.4145,
       52.5763
      ],
      [
       -126.4145,
       52.5873
      ],
      [
       -126.4327,
       52.5873
      ],
      [
       -126.4327,
       52.5763
      ]
     ]
    ]
   },
   "properties": {
    "TENURE_NUMBER_ID": 900045,
    "CLAIM_NAME": "DEMO 045",
    "OWNER_NAME": "SAMPLE, ALEX J.",
    "TENURE_TYPE_DESCRIPTION": "Mineral",
    "TENURE_SUB_TYPE_DESCRIPTION": "CLAIM",
    "TITLE_TYPE_DESCRIPTION": "Cell Title Submission",
    "AREA_IN_HECTARES": 173.0875,
    "ISSUE_DATE": "2017-07-14Z",
    "GOOD_TO_DATE": "2027-04-19Z",
    "_subject": false,
    "_neighbour": true
   }
  },
  {
   "type": "Feature",
   "geometry": {
    "type": "Polygon",
    "coordinates": [
     [
      [
       -126.4327,
       52.5653
      ],
      [
       -126.4145,
       52.5653
      ],
      [
       -126.4145,
       52.5763
      ],
      [
       -126.4327,
       52.5763
      ],
      [
       -126.4327,
       52.5653
      ]
     ]
    ]
   },
   "properties": {
    "TENURE_NUMBER_ID": 900046,
    "CLAIM_NAME": "DEMO 046",
    "OWNER_NAME": "SAMPLE, ALEX J.",
    "TENURE_TYPE_DESCRIPTION": "Mineral",
    "TENURE_SUB_TYPE_DESCRIPTION": "CLAIM",
    "TITLE_TYPE_DESCRIPTION": "Cell Title Submission",
    "AREA_IN_HECTARES": 176.7239,
    "ISSUE_DATE": "2017-05-12Z",
    "GOOD_TO_DATE": "2029-02-12Z",
    "_subject": false,
    "_neighbour": true
   }
  },
  {
   "type": "Feature",
   "geometry": {
    "type": "Polygon",
    "coordinates": [
     [
      [
       -126.4691,
       52.5763
      ],
      [
       -126.4509,
       52.5763
      ],
      [
       -126.4509,
       52.5873
      ],
      [
       -126.4691,
       52.5873
      ],
      [
       -126.4691,
       52.5763
      ]
     ]
    ]
   },
   "properties": {
    "TENURE_NUMBER_ID": 900047,
    "CLAIM_NAME": "DEMO 047",
    "OWNER_NAME": "SAMPLE, ALEX J.",
    "TENURE_TYPE_DESCRIPTION": "Mineral",
    "TENURE_SUB_TYPE_DESCRIPTION": "CLAIM",
    "TITLE_TYPE_DESCRIPTION": "Cell Title Submission",
    "AREA_IN_HECTARES": 172.0521,
    "ISSUE_DATE": "2020-04-12Z",
    "GOOD_TO_DATE": "2028-01-13Z",
    "_subject": false,
    "_neighbour": true
   }
  },
  {
   "type": "Feature",
   "geometry": {
    "type": "Polygon",
    "coordinates": [
     [
      [
       -126.4509,
       52.6093
      ],
      [
       -126.4327,
       52.6093
      ],
      [
       -126.4327,
       52.6203
      ],
      [
       -126.4509,
       52.6203
      ],
      [
       -126.4509,
       52.6093
      ]
     ]
    ]
   },
   "properties": {
    "TENURE_NUMBER_ID": 900048,
    "CLAIM_NAME": "DEMO 048",
    "OWNER_NAME": "SAMPLE, ALEX J.",
    "TENURE_TYPE_DESCRIPTION": "Mineral",
    "TENURE_SUB_TYPE_DESCRIPTION": "CLAIM",
    "TITLE_TYPE_DESCRIPTION": "Cell Title Submission",
    "AREA_IN_HECTARES": 172.1991,
    "ISSUE_DATE": "2019-09-17Z",
    "GOOD_TO_DATE": "2027-06-12Z",
    "_subject": false,
    "_neighbour": true
   }
  },
  {
   "type": "Feature",
   "geometry": {
    "type": "Polygon",
    "coordinates": [
     [
      [
       -126.3781,
       52.5653
      ],
      [
       -126.3599,
       52.5653
      ],
      [
       -126.3599,
       52.5763
      ],
      [
       -126.3781,
       52.5763
      ],
      [
       -126.3781,
       52.5653
      ]
     ]
    ]
   },
   "properties": {
    "TENURE_NUMBER_ID": 900049,
    "CLAIM_NAME": "DEMO 049",
    "OWNER_NAME": "SAMPLE, ALEX J.",
    "TENURE_TYPE_DESCRIPTION": "Mineral",
    "TENURE_SUB_TYPE_DESCRIPTION": "CLAIM",
    "TITLE_TYPE_DESCRIPTION": "Cell Title Submission",
    "AREA_IN_HECTARES": 170.9114,
    "ISSUE_DATE": "2020-08-17Z",
    "GOOD_TO_DATE": "2028-08-10Z",
    "_subject": false,
    "_neighbour": true
   }
  },
  {
   "type": "Feature",
   "geometry": {
    "type": "Polygon",
    "coordinates": [
     [
      [
       -126.4691,
       52.5983
      ],
      [
       -126.4509,
       52.5983
      ],
      [
       -126.4509,
       52.6093
      ],
      [
       -126.4691,
       52.6093
      ],
      [
       -126.4691,
       52.5983
      ]
     ]
    ]
   },
   "properties": {
    "TENURE_NUMBER_ID": 900050,
    "CLAIM_NAME": "DEMO 050",
    "OWNER_NAME": "SAMPLE, MORGAN K.",
    "TENURE_TYPE_DESCRIPTION": "Mineral",
    "TENURE_SUB_TYPE_DESCRIPTION": "CLAIM",
    "TITLE_TYPE_DESCRIPTION": "Cell Title Submission",
    "AREA_IN_HECTARES": 176.8702,
    "ISSUE_DATE": "2019-02-15Z",
    "GOOD_TO_DATE": "2028-06-17Z",
    "_subject": false,
    "_neighbour": true
   }
  },
  {
   "type": "Feature",
   "geometry": {
    "type": "Polygon",
    "coordinates": [
     [
      [
       -126.3417,
       52.6203
      ],
      [
       -126.3235,
       52.6203
      ],
      [
       -126.3235,
       52.6313
      ],
      [
       -126.3417,
       52.6313
      ],
      [
       -126.3417,
       52.6203
      ]
     ]
    ]
   },
   "properties": {
    "TENURE_NUMBER_ID": 900051,
    "CLAIM_NAME": "DEMO 051",
    "OWNER_NAME": "SAMPLE, MORGAN K.",
    "TENURE_TYPE_DESCRIPTION": "Mineral",
    "TENURE_SUB_TYPE_DESCRIPTION": "CLAIM",
    "TITLE_TYPE_DESCRIPTION": "Cell Title Submission",
    "AREA_IN_HECTARES": 181.6434,
    "ISSUE_DATE": "2023-08-18Z",
    "GOOD_TO_DATE": "2028-04-13Z",
    "_subject": false,
    "_neighbour": true
   }
  },
  {
   "type": "Feature",
   "geometry": {
    "type": "Polygon",
    "coordinates": [
     [
      [
       -126.4509,
       52.5983
      ],
      [
       -126.4327,
       52.5983
      ],
      [
       -126.4327,
       52.6093
      ],
      [
       -126.4509,
       52.6093
      ],
      [
       -126.4509,
       52.5983
      ]
     ]
    ]
   },
   "properties": {
    "TENURE_NUMBER_ID": 900052,
    "CLAIM_NAME": "DEMO 052",
    "OWNER_NAME": "SAMPLE, MORGAN K.",
    "TENURE_TYPE_DESCRIPTION": "Mineral",
    "TENURE_SUB_TYPE_DESCRIPTION": "CLAIM",
    "TITLE_TYPE_DESCRIPTION": "Cell Title Submission",
    "AREA_IN_HECTARES": 181.0322,
    "ISSUE_DATE": "2017-05-12Z",
    "GOOD_TO_DATE": "2027-09-18Z",
    "_subject": false,
    "_neighbour": true
   }
  },
  {
   "type": "Feature",
   "geometry": {
    "type": "Polygon",
    "coordinates": [
     [
      [
       -126.3417,
       52.5983
      ],
      [
       -126.3235,
       52.5983
      ],
      [
       -126.3235,
       52.6093
      ],
      [
       -126.3417,
       52.6093
      ],
      [
       -126.3417,
       52.5983
      ]
     ]
    ]
   },
   "properties": {
    "TENURE_NUMBER_ID": 900053,
    "CLAIM_NAME": "DEMO 053",
    "OWNER_NAME": "SAMPLE, MORGAN K.",
    "TENURE_TYPE_DESCRIPTION": "Mineral",
    "TENURE_SUB_TYPE_DESCRIPTION": "CLAIM",
    "TITLE_TYPE_DESCRIPTION": "Cell Title Submission",
    "AREA_IN_HECTARES": 175.2513,
    "ISSUE_DATE": "2019-09-16Z",
    "GOOD_TO_DATE": "2030-07-18Z",
    "_subject": false,
    "_neighbour": true
   }
  },
  {
   "type": "Feature",
   "geometry": {
    "type": "Polygon",
    "coordinates": [
     [
      [
       -126.3781,
       52.6313
      ],
      [
       -126.3599,
       52.6313
      ],
      [
       -126.3599,
       52.6423
      ],
      [
       -126.3781,
       52.6423
      ],
      [
       -126.3781,
       52.6313
      ]
     ]
    ]
   },
   "properties": {
    "TENURE_NUMBER_ID": 900054,
    "CLAIM_NAME": "DEMO 054",
    "OWNER_NAME": "SAMPLE, MORGAN K.",
    "TENURE_TYPE_DESCRIPTION": "Mineral",
    "TENURE_SUB_TYPE_DESCRIPTION": "CLAIM",
    "TITLE_TYPE_DESCRIPTION": "Cell Title Submission",
    "AREA_IN_HECTARES": 183.9598,
    "ISSUE_DATE": "2017-05-10Z",
    "GOOD_TO_DATE": "2028-03-12Z",
    "_subject": false,
    "_neighbour": true
   }
  },
  {
   "type": "Feature",
   "geometry": {
    "type": "Polygon",
    "coordinates": [
     [
      [
       -126.4691,
       52.6203
      ],
      [
       -126.4509,
       52.6203
      ],
      [
       -126.4509,
       52.6313
      ],
      [
       -126.4691,
       52.6313
      ],
      [
       -126.4691,
       52.6203
      ]
     ]
    ]
   },
   "properties": {
    "TENURE_NUMBER_ID": 900055,
    "CLAIM_NAME": "DEMO 055",
    "OWNER_NAME": "SAMPLE, MORGAN K.",
    "TENURE_TYPE_DESCRIPTION": "Mineral",
    "TENURE_SUB_TYPE_DESCRIPTION": "CLAIM",
    "TITLE_TYPE_DESCRIPTION": "Cell Title Submission",
    "AREA_IN_HECTARES": 170.9222,
    "ISSUE_DATE": "2022-06-13Z",
    "GOOD_TO_DATE": "2031-04-14Z",
    "_subject": false,
    "_neighbour": true
   }
  }
 ]
}